{
"type": "FeatureCollection",
"name": "A4D_Fietsenstallingen",
"crs": { "type": "name", "properties": { "name": "urn:ogc:def:crs:OGC:1.3:CRS84" } },
"features": [
{ "type": "Feature", "properties": { "Name": "Stalling Loosdrecht", "description": "Fietsenstalling voor de scholieren van Loosdrechtse Scholen", "timestamp": null, "begin": null, "end": null, "altitudeMode": null, "tessellate": -1, "extrude": 0, "visibility": -1, "drawOrder": null, "icon": null }, "geometry": { "type": "Polygon", "coordinates": [ [ [ 5.13958164817377, 52.203877738517271, 0.0 ], [ 5.139010070879922, 52.203801350974345, 0.0 ], [ 5.139019310329298, 52.203768980178609, 0.0 ], [ 5.139593343481902, 52.203849233176008, 0.0 ], [ 5.13958164817377, 52.203877738517271, 0.0 ] ] ] } },
{ "type": "Feature", "properties": { "Name": "Stalling Hilversum", "description": "Fietsenstalling voor de scholieren van Hilversumse Scholen", "timestamp": null, "begin": null, "end": null, "altitudeMode": null, "tessellate": -1, "extrude": 0, "visibility": -1, "drawOrder": null, "icon": null }, "geometry": { "type": "Polygon", "coordinates": [ [ [ 5.1419281, 52.2054958, 0.0 ], [ 5.140925, 52.2053216, 0.0 ], [ 5.1410108, 52.2051243, 0.0 ], [ 5.1420622, 52.2053183, 0.0 ], [ 5.1419281, 52.2054958, 0.0 ] ] ] } }
]
}
