{
"type": "FeatureCollection",
"name": "Alternatieve_Fietsroutes_2026",
"crs": { "type": "name", "properties": { "name": "urn:ogc:def:crs:OGC:1.3:CRS84" } },
"features": [
{ "type": "Feature", "properties": { "name": "AlternatieveFietsroute2026_1", "cmt": null, "desc": null, "src": null, "link1_href": null, "link1_text": null, "link1_type": null, "link2_href": null, "link2_text": null, "link2_type": null, "number": null, "type": null }, "geometry": { "type": "MultiLineString", "coordinates": [ [ [ 5.145564, 52.209402, 1.0 ], [ 5.145493, 52.209668, 1.0 ], [ 5.145236, 52.210231, 1.0 ], [ 5.144972, 52.210921, 1.0 ], [ 5.144972, 52.210921, 1.0 ], [ 5.14494, 52.210947, 1.0 ], [ 5.1445037, 52.2107369, 1.0 ], [ 5.144502, 52.210739, 1.0 ], [ 5.144278, 52.210908, 0.0 ], [ 5.144248, 52.21091, 0.0 ], [ 5.14421, 52.210909, 0.0 ], [ 5.143843, 52.211099, 1.0 ], [ 5.14364, 52.211257, 1.0 ], [ 5.143458, 52.21137, 2.0 ], [ 5.143171, 52.211485, 2.0 ], [ 5.1430526, 52.2113632, 2.0 ], [ 5.143054, 52.211363, 2.0 ], [ 5.143042, 52.211352, 2.0 ], [ 5.142839, 52.211173, 1.0 ], [ 5.142555, 52.210986, 1.0 ], [ 5.142393, 52.210927, 1.0 ], [ 5.142161, 52.210884, 2.0 ], [ 5.139669, 52.210221, 6.0 ], [ 5.139139, 52.210073, 6.0 ], [ 5.138941, 52.209965, 6.0 ], [ 5.138568, 52.20986, 6.0 ], [ 5.138324, 52.209788, 6.0 ], [ 5.138324, 52.209788, 6.0 ], [ 5.135985, 52.209099, 3.0 ], [ 5.135148, 52.208796, 1.0 ], [ 5.134365, 52.208486, 0.0 ], [ 5.134365, 52.208486, 0.0 ], [ 5.134335, 52.208474, 0.0 ], [ 5.135155, 52.207348, 1.0 ], [ 5.1354137, 52.2070914, 1.0 ], [ 5.135412, 52.207094, 1.0 ], [ 5.135412, 52.207094, 1.0 ], [ 5.137094, 52.207587, 3.0 ], [ 5.137094, 52.207587, 3.0 ], [ 5.137096, 52.207588, 3.0 ], [ 5.137791, 52.206683, 4.0 ], [ 5.138772, 52.205202, 3.0 ], [ 5.138795, 52.205206, 3.0 ], [ 5.138795, 52.205206, 3.0 ], [ 5.139457, 52.205331, 3.0 ], [ 5.140702, 52.205606, 3.0 ], [ 5.140718, 52.205573, 3.0 ], [ 5.140718, 52.205573, 3.0 ], [ 5.140844, 52.20533, 3.0 ] ] ] } },
{ "type": "Feature", "properties": { "name": "AlternatieveFietsroute2026_1", "cmt": null, "desc": null, "src": null, "link1_href": null, "link1_text": null, "link1_type": null, "link2_href": null, "link2_text": null, "link2_type": null, "number": null, "type": null }, "geometry": { "type": "MultiLineString", "coordinates": [ [ [ 5.157259, 52.207295, 4.0 ], [ 5.157259, 52.207295, 4.0 ], [ 5.157153, 52.207172, 4.0 ], [ 5.15677, 52.206925, 4.0 ], [ 5.156299, 52.206379, 4.0 ], [ 5.155427, 52.205655, 4.0 ], [ 5.154776, 52.205082, 4.0 ], [ 5.154595, 52.204973, 11.0 ], [ 5.15438, 52.204878, 11.0 ], [ 5.154168, 52.204758, 11.0 ], [ 5.153279, 52.204135, 9.0 ], [ 5.152153, 52.203107, 9.0 ], [ 5.151941, 52.203205, 9.0 ], [ 5.151941, 52.203205, 9.0 ], [ 5.149192, 52.204471, 8.0 ], [ 5.149024, 52.204531, 8.0 ], [ 5.148041, 52.204462, 9.0 ], [ 5.147175, 52.2044, 8.0 ], [ 5.147175, 52.2044, 8.0 ], [ 5.146091, 52.204325, 7.0 ], [ 5.143245, 52.204099, 4.0 ], [ 5.143273, 52.204062, 4.0 ], [ 5.143273, 52.204062, 4.0 ], [ 5.142106, 52.205414, 4.0 ], [ 5.14206, 52.20554, 3.0 ] ] ] } },
{ "type": "Feature", "properties": { "name": null, "cmt": null, "desc": null, "src": null, "link1_href": null, "link1_text": null, "link1_type": null, "link2_href": null, "link2_text": null, "link2_type": null, "number": null, "type": null }, "geometry": { "type": "MultiLineString", "coordinates": [ [ [ 5.137767901454889, 52.210805186132916, 0.0 ], [ 5.138563619341626, 52.209863871007911, 0.0 ] ] ] } },
{ "type": "Feature", "properties": { "name": null, "cmt": null, "desc": null, "src": null, "link1_href": null, "link1_text": null, "link1_type": null, "link2_href": null, "link2_text": null, "link2_type": null, "number": null, "type": null }, "geometry": { "type": "MultiLineString", "coordinates": [ [ [ 5.142332227666317, 52.211565898652168, 0.0 ], [ 5.142829551345526, 52.211434975763801, 0.0 ], [ 5.143046900212738, 52.211364999579047, 0.0 ] ] ] } },
{ "type": "Feature", "properties": { "name": null, "cmt": null, "desc": null, "src": null, "link1_href": null, "link1_text": null, "link1_type": null, "link2_href": null, "link2_text": null, "link2_type": null, "number": null, "type": null }, "geometry": { "type": "MultiLineString", "coordinates": [ [ [ 5.144826213820584, 52.2111516844002, 0.0 ], [ 5.144343625657794, 52.210930467577306, 0.0 ], [ 5.144282841652555, 52.210905637048832, 0.0 ] ] ] } },
{ "type": "Feature", "properties": { "name": null, "cmt": null, "desc": null, "src": null, "link1_href": null, "link1_text": null, "link1_type": null, "link2_href": null, "link2_text": null, "link2_type": null, "number": null, "type": null }, "geometry": { "type": "MultiLineString", "coordinates": [ [ [ 5.157996772349249, 52.207060123619449, 0.0 ], [ 5.157363145143144, 52.207415116716732, 0.0 ], [ 5.157258154588643, 52.207294340369202, 0.0 ] ] ] } },
{ "type": "Feature", "properties": { "name": null, "cmt": null, "desc": null, "src": null, "link1_href": null, "link1_text": null, "link1_type": null, "link2_href": null, "link2_text": null, "link2_type": null, "number": null, "type": null }, "geometry": { "type": "MultiLineString", "coordinates": [ [ [ 5.157578652070801, 52.207573141348519, 0.0 ], [ 5.157360382233813, 52.207411730468458, 0.0 ] ] ] } },
{ "type": "Feature", "properties": { "name": null, "cmt": null, "desc": null, "src": null, "link1_href": null, "link1_text": null, "link1_type": null, "link2_href": null, "link2_text": null, "link2_type": null, "number": null, "type": null }, "geometry": { "type": "MultiLineString", "coordinates": [ [ [ 5.157082249361365, 52.207560160774946, 0.0 ], [ 5.157364066112918, 52.207412294843195, 0.0 ] ] ] } },
{ "type": "Feature", "properties": { "name": null, "cmt": null, "desc": null, "src": null, "link1_href": null, "link1_text": null, "link1_type": null, "link2_href": null, "link2_text": null, "link2_type": null, "number": null, "type": null }, "geometry": { "type": "MultiLineString", "coordinates": [ [ [ 5.1467563362293, 52.209634182575655, 0.0 ], [ 5.146255328670985, 52.209498739208911, 0.0 ], [ 5.145577494915615, 52.209417472990673, 0.0 ] ] ] } }
]
}
