{
"type": "FeatureCollection",
"name": "Defile_Startvakken",
"crs": { "type": "name", "properties": { "name": "urn:ogc:def:crs:OGC:1.3:CRS84" } },
"features": [
{ "type": "Feature", "properties": { "fid": 1, "Groep": "Bloemrijk", "Oppervlak": "52.544069876894355", "AantalDeelnemers": "50", "webLabel": "Bloemrijk\n50 personen" }, "geometry": { "type": "MultiPolygon", "coordinates": [ [ [ [ 5.13548626399094, 52.194724282865572 ], [ 5.135268951046601, 52.194787049229035 ], [ 5.135288857857636, 52.194813077774505 ], [ 5.135463814278458, 52.194762545258676 ], [ 5.13550617090096, 52.194750311374719 ], [ 5.13548626399094, 52.194724282865572 ] ] ] ] } },
{ "type": "Feature", "properties": { "fid": 2, "Groep": "Catamaran", "Oppervlak": "52.54424233362079", "AantalDeelnemers": "39", "webLabel": "Catamaran\n39 personen" }, "geometry": { "type": "MultiPolygon", "coordinates": [ [ [ [ 5.135268951046601, 52.194787049229035 ], [ 5.135051636730895, 52.194849815410791 ], [ 5.135071543442942, 52.19487584399257 ], [ 5.135288857857636, 52.194813077774505 ], [ 5.135268951046601, 52.194787049229035 ] ] ] ] } },
{ "type": "Feature", "properties": { "fid": 3, "Groep": "Wereldwijs", "Oppervlak": "52.54432137310505", "AantalDeelnemers": "243", "webLabel": "Wereldwijs\n243 personen" }, "geometry": { "type": "MultiPolygon", "coordinates": [ [ [ [ 5.135051636730895, 52.194849815410791 ], [ 5.134834321539959, 52.19491258126758 ], [ 5.134854228153016, 52.194938609885618 ], [ 5.135071543442942, 52.19487584399257 ], [ 5.135051636730895, 52.194849815410791 ] ] ] ] } },
{ "type": "Feature", "properties": { "fid": 4, "Groep": "Junior Campus", "Oppervlak": "52.543949665501714", "AantalDeelnemers": "35", "webLabel": "Junior Campus\n35 personen" }, "geometry": { "type": "MultiPolygon", "coordinates": [ [ [ [ 5.134834321539959, 52.19491258126758 ], [ 5.134617007188288, 52.194975346304147 ], [ 5.134636913702358, 52.195001374958494 ], [ 5.134854228153016, 52.194938609885618 ], [ 5.134834321539959, 52.19491258126758 ] ] ] ] } },
{ "type": "Feature", "properties": { "fid": 5, "Groep": "Augustinus", "Oppervlak": "52.544001661241055", "AantalDeelnemers": "125", "webLabel": "Augustinus\n125 personen" }, "geometry": { "type": "MultiPolygon", "coordinates": [ [ [ [ 5.134617007188288, 52.194975346304147 ], [ 5.13439969211003, 52.195038110972767 ], [ 5.134419598525107, 52.195064139663408 ], [ 5.134636913702358, 52.195001374958494 ], [ 5.134617007188288, 52.194975346304147 ] ] ] ] } },
{ "type": "Feature", "properties": { "fid": 6, "Groep": "Goudenregen", "Oppervlak": "52.54410549812019", "AantalDeelnemers": "108", "webLabel": "Goudenregen\n108 personen" }, "geometry": { "type": "MultiPolygon", "coordinates": [ [ [ [ 5.13439969211003, 52.195038110972767 ], [ 5.134182375928102, 52.195100875382337 ], [ 5.134202282244187, 52.195126904109273 ], [ 5.134419598525107, 52.195064139663408 ], [ 5.13439969211003, 52.195038110972767 ] ] ] ] } },
{ "type": "Feature", "properties": { "fid": 7, "Groep": "Flore", "Oppervlak": "52.54416195489466", "AantalDeelnemers": "59", "webLabel": "Flore\n59 personen" }, "geometry": { "type": "MultiPolygon", "coordinates": [ [ [ [ 5.134182375928102, 52.195100875382337 ], [ 5.133965058957081, 52.195163639442036 ], [ 5.133984965174177, 52.19518966820528 ], [ 5.134202282244187, 52.195126904109273 ], [ 5.134182375928102, 52.195100875382337 ] ] ] ] } },
{ "type": "Feature", "properties": { "fid": 0, "Groep": "Violen", "Oppervlak": "52.54396825097501", "AantalDeelnemers": "238", "webLabel": "Violen\n238 personen" }, "geometry": { "type": "MultiPolygon", "coordinates": [ [ [ [ 5.133965058957081, 52.195163639442036 ], [ 5.133747742134525, 52.195226402881069 ], [ 5.133767648252624, 52.195252431680629 ], [ 5.133984965174177, 52.19518966820528 ], [ 5.133965058957081, 52.195163639442036 ] ] ] ] } },
{ "type": "Feature", "properties": { "fid": 9, "Groep": "Bavinck", "Oppervlak": "52.543942200019956", "AantalDeelnemers": "153", "webLabel": "Bavinck\n153 personen" }, "geometry": { "type": "MultiPolygon", "coordinates": [ [ [ [ 5.133747742134525, 52.195226402881069 ], [ 5.133530424824869, 52.195289165882954 ], [ 5.133550330843974, 52.195315194718823 ], [ 5.133767648252624, 52.195252431680629 ], [ 5.133747742134525, 52.195226402881069 ] ] ] ] } },
{ "type": "Feature", "properties": { "fid": 10, "Groep": "MTSZ", "Oppervlak": "52.543981563299894", "AantalDeelnemers": "197", "webLabel": "MTSZ\n197 personen" }, "geometry": { "type": "MultiPolygon", "coordinates": [ [ [ [ 5.133530424824869, 52.195289165882954 ], [ 5.133313106748335, 52.195351928528552 ], [ 5.133333012668448, 52.195377957400773 ], [ 5.133550330843974, 52.195315194718823 ], [ 5.133530424824869, 52.195289165882954 ] ] ] ] } },
{ "type": "Feature", "properties": { "fid": 11, "Groep": "de Haven", "Oppervlak": "52.543872309848666", "AantalDeelnemers": "195", "webLabel": "de Haven\n195 personen" }, "geometry": { "type": "MultiPolygon", "coordinates": [ [ [ [ 5.133313106748335, 52.195351928528552 ], [ 5.133095788474872, 52.195414690653273 ], [ 5.133115694295984, 52.195440719561738 ], [ 5.133333012668448, 52.195377957400773 ], [ 5.133313106748335, 52.195351928528552 ] ] ] ] } },
{ "type": "Feature", "properties": { "fid": 12, "Groep": null, "Oppervlak": "52.5439286865294", "AantalDeelnemers": null, "webLabel": "\n personen" }, "geometry": { "type": "MultiPolygon", "coordinates": [ [ [ [ 5.133095788474872, 52.195414690653273 ], [ 5.132878469382741, 52.195477452436577 ], [ 5.132898375104857, 52.195503481381351 ], [ 5.133115694295984, 52.195440719561738 ], [ 5.133095788474872, 52.195414690653273 ] ] ] ] } },
{ "type": "Feature", "properties": { "fid": 13, "Groep": null, "Oppervlak": "52.54172700410709", "AantalDeelnemers": null, "webLabel": "\n personen" }, "geometry": { "type": "MultiPolygon", "coordinates": [ [ [ [ 5.132878469382741, 52.195477452436577 ], [ 5.132661158798093, 52.195540211185182 ], [ 5.132678856577062, 52.195563353147868 ], [ 5.132681064421212, 52.195566240166265 ], [ 5.132898375104857, 52.195503481381351 ], [ 5.132878469382741, 52.195477452436577 ] ] ] ] } }
]
}
