{
"type": "FeatureCollection",
"name": "IKC_Startvakken",
"crs": { "type": "name", "properties": { "name": "urn:ogc:def:crs:OGC:1.3:CRS84" } },
"features": [
{ "type": "Feature", "properties": { "Name": "Alfa", "description": null, "timestamp": null, "begin": null, "end": null, "altitudeMode": null, "tessellate": -1, "extrude": 0, "visibility": -1, "drawOrder": null, "icon": null }, "geometry": { "type": "Polygon", "coordinates": [ [ [ 5.139320828859275, 52.203438749807198, 0.0 ], [ 5.139330228859275, 52.203377949807198, 0.0 ], [ 5.139407928859275, 52.203381249807201, 0.0 ], [ 5.139398628859275, 52.203443749807199, 0.0 ], [ 5.139320828859275, 52.203438749807198, 0.0 ] ] ] } },
{ "type": "Feature", "properties": { "Name": "Bravo", "description": null, "timestamp": null, "begin": null, "end": null, "altitudeMode": null, "tessellate": -1, "extrude": 0, "visibility": -1, "drawOrder": null, "icon": null }, "geometry": { "type": "Polygon", "coordinates": [ [ [ 5.139291498524519, 52.203550875829315, 0.0 ], [ 5.13936119852452, 52.203553375829316, 0.0 ], [ 5.13934779852452, 52.203623275829315, 0.0 ], [ 5.13927809852452, 52.203619075829316, 0.0 ], [ 5.13928549852452, 52.203584975829315, 0.0 ], [ 5.139291498524519, 52.203550875829315, 0.0 ] ] ] } },
{ "type": "Feature", "properties": { "Name": "Charlie", "description": null, "timestamp": null, "begin": null, "end": null, "altitudeMode": null, "tessellate": -1, "extrude": 0, "visibility": -1, "drawOrder": null, "icon": null }, "geometry": { "type": "Polygon", "coordinates": [ [ [ 5.139605401396629, 52.203580590116594, 0.0 ], [ 5.139507603177544, 52.203573064470703, 0.0 ], [ 5.139535232270825, 52.203400243037564, 0.0 ], [ 5.13963, 52.2034048, 0.0 ], [ 5.139605401396629, 52.203580590116594, 0.0 ] ] ] } },
{ "type": "Feature", "properties": { "Name": "Delta", "description": null, "timestamp": null, "begin": null, "end": null, "altitudeMode": null, "tessellate": -1, "extrude": 0, "visibility": -1, "drawOrder": null, "icon": null }, "geometry": { "type": "Polygon", "coordinates": [ [ [ 5.139457, 52.2033711, 0.0 ], [ 5.1395066, 52.2032914, 0.0 ], [ 5.1396313, 52.2033168, 0.0 ], [ 5.139626, 52.2033892, 0.0 ], [ 5.1395254, 52.2033834, 0.0 ], [ 5.139457, 52.2033711, 0.0 ] ] ] } },
{ "type": "Feature", "properties": { "Name": "Echo", "description": null, "timestamp": null, "begin": null, "end": null, "altitudeMode": null, "tessellate": -1, "extrude": 0, "visibility": -1, "drawOrder": null, "icon": null }, "geometry": { "type": "Polygon", "coordinates": [ [ [ 5.1394945, 52.2032864, 0.0 ], [ 5.1394476, 52.2033694, 0.0 ], [ 5.1393832, 52.2033415, 0.0 ], [ 5.1394127, 52.2032667, 0.0 ], [ 5.1394945, 52.2032864, 0.0 ] ] ] } },
{ "type": "Feature", "properties": { "Name": "Foxtrot", "description": null, "timestamp": null, "begin": null, "end": null, "altitudeMode": null, "tessellate": -1, "extrude": 0, "visibility": -1, "drawOrder": null, "icon": null }, "geometry": { "type": "Polygon", "coordinates": [ [ [ 5.139370835054319, 52.203325737944802, 0.0 ], [ 5.139197571140726, 52.203293098405169, 0.0 ], [ 5.139243171140726, 52.203204298405169, 0.0 ], [ 5.139408071140726, 52.20324699840517, 0.0 ], [ 5.139370835054319, 52.203325737944802, 0.0 ] ] ] } },
{ "type": "Feature", "properties": { "Name": "Golf", "description": null, "timestamp": null, "begin": null, "end": null, "altitudeMode": null, "tessellate": -1, "extrude": 0, "visibility": -1, "drawOrder": null, "icon": null }, "geometry": { "type": "Polygon", "coordinates": [ [ [ 5.139223245771854, 52.203199722889039, 0.0 ], [ 5.139175457894662, 52.203284010670686, 0.0 ], [ 5.138986001254996, 52.203242283357405, 0.0 ], [ 5.139030045771854, 52.203152922889039, 0.0 ], [ 5.139223245771854, 52.203199722889039, 0.0 ] ] ] } },
{ "type": "Feature", "properties": { "Name": "Hotel", "description": null, "timestamp": null, "begin": null, "end": null, "altitudeMode": null, "tessellate": -1, "extrude": 0, "visibility": -1, "drawOrder": null, "icon": null }, "geometry": { "type": "Polygon", "coordinates": [ [ [ 5.139819229977631, 52.203462435825983, 0.0 ], [ 5.139674429977631, 52.203453435825985, 0.0 ], [ 5.139691829977631, 52.203363035825987, 0.0 ], [ 5.139832729977631, 52.203381135825985, 0.0 ], [ 5.139819229977631, 52.203462435825983, 0.0 ] ] ] } },
{ "type": "Feature", "properties": { "Name": "India", "description": null, "timestamp": null, "begin": null, "end": null, "altitudeMode": null, "tessellate": -1, "extrude": 0, "visibility": -1, "drawOrder": null, "icon": null }, "geometry": { "type": "Polygon", "coordinates": [ [ [ 5.13896446110323, 52.203238428114524, 0.0 ], [ 5.138789143965344, 52.203202823796829, 0.0 ], [ 5.138833547865265, 52.203101226606073, 0.0 ], [ 5.139009683334955, 52.203144314728732, 0.0 ], [ 5.13896446110323, 52.203238428114524, 0.0 ] ] ] } },
{ "type": "Feature", "properties": { "Name": "Juliet", "description": null, "timestamp": null, "begin": null, "end": null, "altitudeMode": null, "tessellate": -1, "extrude": 0, "visibility": -1, "drawOrder": null, "icon": null }, "geometry": { "type": "Polygon", "coordinates": [ [ [ 5.138809125720307, 52.203097598130682, 0.0 ], [ 5.138792844290338, 52.203132975753135, 0.0 ], [ 5.138588586350695, 52.203090341179006, 0.0 ], [ 5.138603815437099, 52.20304812201848, 0.0 ], [ 5.138809125720307, 52.203097598130682, 0.0 ] ] ] } }
]
}
