<?xml version="1.0" encoding="UTF-8" standalone="no" ?>
<gpx xmlns="http://www.topografix.com/GPX/1/1" creator="www.plotaroute.com" version="1.1"  xmlns:xsi="http://www.w3.org/2001/XMLSchema-instance" xsi:schemaLocation="http://www.topografix.com/GPX/1/1 http://www.topografix.com/GPX/1/1/gpx.xsd">
<metadata>
<desc>Route created on plotaroute.com</desc>
</metadata>
<wpt lat="52.202968" lon="5.138455">
<time>2026-05-14T00:00:00Z</time>
<name>START – IK</name>
<cmt>START – IKC Wereldwijs </cmt>
<desc>START – IKC Wereldwijs </desc>
<sym>Flag, Blue</sym>
<type>Waypoint</type>
</wpt>
<wpt lat="52.202948" lon="5.138464">
<time>2026-05-14T00:00:02Z</time>
<name>Linksaf op</name>
<cmt>Linksaf op Laan van Eikenrode</cmt>
<desc>Linksaf op Laan van Eikenrode</desc>
<sym>Left</sym>
<type>Waypoint</type>
</wpt>
<wpt lat="52.2034" lon="5.140107">
<time>2026-05-14T00:01:30Z</time>
<name>Linksaf op</name>
<cmt>Linksaf op Eikenlaan</cmt>
<desc>Linksaf op Eikenlaan</desc>
<sym>Left</sym>
<type>Waypoint</type>
</wpt>
<wpt lat="52.20757" lon="5.137034">
<time>2026-05-14T00:07:37Z</time>
<name>Linksaf na</name>
<cmt>Linksaf naar Molenmeent</cmt>
<desc>Linksaf naar Molenmeent</desc>
<sym>Left</sym>
<type>Waypoint</type>
</wpt>
<wpt lat="52.207521" lon="5.136863">
<time>2026-05-14T00:07:46Z</time>
<name>Rechtsaf n</name>
<cmt>Rechtsaf naar Molenmeent oversteken bij oversteekplaats fietsers.</cmt>
<desc>Rechtsaf naar Molenmeent oversteken bij oversteekplaats fietsers.</desc>
<sym>Right</sym>
<type>Waypoint</type>
</wpt>
<wpt lat="52.207835" lon="5.136616">
<time>2026-05-14T00:08:14Z</time>
<name>Linksaf na</name>
<cmt>Linksaf naar Molenmeent (fietspad rechterzijde)</cmt>
<desc>Linksaf naar Molenmeent (fietspad rechterzijde)</desc>
<sym>Left</sym>
<type>Waypoint</type>
</wpt>
<wpt lat="52.2073208" lon="5.1352316">
<time>2026-05-14T00:09:34Z</time>
<name>Rechtsaf n</name>
<cmt>Rechtsaf naar &#39;t Jagerspaadje (voor golfbaan)</cmt>
<desc>Rechtsaf naar &#39;t Jagerspaadje (voor golfbaan)</desc>
<sym>Right</sym>
<type>Waypoint</type>
</wpt>
<wpt lat="52.20986" lon="5.138568">
<time>2026-05-14T00:15:14Z</time>
<name>Rechtdoor </name>
<cmt>Rechtdoor Raaweg oversteken naar Slangenweg</cmt>
<desc>Rechtdoor Raaweg oversteken naar Slangenweg</desc>
<sym>Straight</sym>
<type>Waypoint</type>
</wpt>
<wpt lat="52.210504" lon="5.140725">
<time>2026-05-14T00:17:12Z</time>
<name>Linksaf bi</name>
<cmt>Linksaf bij tweede bospad (na 150 meter)</cmt>
<desc>Linksaf bij tweede bospad (na 150 meter)</desc>
<sym>Left</sym>
<type>Waypoint</type>
</wpt>
<wpt lat="52.210955" lon="5.140624">
<time>2026-05-14T00:17:49Z</time>
<name>Linksaf Bi</name>
<cmt>Linksaf Bij T-splitsing</cmt>
<desc>Linksaf Bij T-splitsing</desc>
<sym>Left</sym>
<type>Waypoint</type>
</wpt>
<wpt lat="52.211014" lon="5.140123">
<time>2026-05-14T00:18:15Z</time>
<name>Rechts aan</name>
<cmt>Rechts aanhouden bij T-splitsing </cmt>
<desc>Rechts aanhouden bij T-splitsing </desc>
<sym>Right_slight</sym>
<type>Waypoint</type>
</wpt>
<wpt lat="52.211534" lon="5.139447">
<time>2026-05-14T00:19:13Z</time>
<name>Linksaf bi</name>
<cmt>Linksaf bij T-splitsing</cmt>
<desc>Linksaf bij T-splitsing</desc>
<sym>Left_slight</sym>
<type>Waypoint</type>
</wpt>
<wpt lat="52.211691" lon="5.138951">
<time>2026-05-14T00:19:41Z</time>
<name>Rechtsaf  </name>
<cmt>Rechtsaf  bij T-splitsing</cmt>
<desc>Rechtsaf  bij T-splitsing</desc>
<sym>Right_slight</sym>
<type>Waypoint</type>
</wpt>
<wpt lat="52.212411" lon="5.138685">
<time>2026-05-14T00:20:45Z</time>
<name>Linksaf vo</name>
<cmt>Linksaf voor de twee vijvers</cmt>
<desc>Linksaf voor de twee vijvers</desc>
<sym>Left</sym>
<type>Waypoint</type>
</wpt>
<wpt lat="52.211946" lon="5.137457">
<time>2026-05-14T00:21:57Z</time>
<name>Rechtsaf O</name>
<cmt>Rechtsaf Om de linker vijver heen richting fietspad</cmt>
<desc>Rechtsaf Om de linker vijver heen richting fietspad</desc>
<sym>Right</sym>
<type>Waypoint</type>
</wpt>
<wpt lat="52.2125208" lon="5.1369824">
<time>2026-05-14T00:22:50Z</time>
<name>Rechtdoor </name>
<cmt>Rechtdoor Fietspad oversteken, pad blijven vervolgen</cmt>
<desc>Rechtdoor Fietspad oversteken, pad blijven vervolgen</desc>
<sym>Straight</sym>
<type>Waypoint</type>
</wpt>
<wpt lat="52.2134921" lon="5.1362221">
<time>2026-05-14T00:24:16Z</time>
<name>Rechtdoor </name>
<cmt>Rechtdoor bij open vlakte</cmt>
<desc>Rechtdoor bij open vlakte</desc>
<sym>Straight</sym>
<type>Waypoint</type>
</wpt>
<wpt lat="52.214247" lon="5.13554">
<time>2026-05-14T00:25:26Z</time>
<name>Linksaf 2e</name>
<cmt>Linksaf 2e pad bij bladafval</cmt>
<desc>Linksaf 2e pad bij bladafval</desc>
<sym>Left</sym>
<type>Waypoint</type>
</wpt>
<wpt lat="52.2138625" lon="5.1345185">
<time>2026-05-14T00:26:25Z</time>
<name>Rechtsaf o</name>
<cmt>Rechtsaf op Raaweg (rechts blijven lopen)</cmt>
<desc>Rechtsaf op Raaweg (rechts blijven lopen)</desc>
<sym>Right</sym>
<type>Waypoint</type>
</wpt>
<wpt lat="52.214812" lon="5.134008">
<time>2026-05-14T00:27:54Z</time>
<name>Linksaf 1s</name>
<cmt>Linksaf 1ste voet/fietspad volgen (tussen sportvelden door)</cmt>
<desc>Linksaf 1ste voet/fietspad volgen (tussen sportvelden door)</desc>
<sym>Left</sym>
<type>Waypoint</type>
</wpt>
<wpt lat="52.211687" lon="5.128827">
<time>2026-05-14T00:33:53Z</time>
<name>Rechtsaf E</name>
<cmt>Rechtsaf Einde voet/fietspad volgen </cmt>
<desc>Rechtsaf Einde voet/fietspad volgen </desc>
<sym>Right</sym>
<type>Waypoint</type>
</wpt>
<wpt lat="52.2119" lon="5.128185">
<time>2026-05-14T00:34:30Z</time>
<name>Linksaf Om</name>
<cmt>Linksaf Om jeu de boules/pentanque clubhuis heen</cmt>
<desc>Linksaf Om jeu de boules/pentanque clubhuis heen</desc>
<sym>Left</sym>
<type>Waypoint</type>
</wpt>
<wpt lat="52.211162" lon="5.127315">
<time>2026-05-14T00:35:43Z</time>
<name>Linksaf op</name>
<cmt>Linksaf op &#39;t Jagerspaadje verharde voetpad op</cmt>
<desc>Linksaf op &#39;t Jagerspaadje verharde voetpad op</desc>
<sym>Left</sym>
<type>Waypoint</type>
</wpt>
<wpt lat="52.2078077" lon="5.131889">
<time>2026-05-14T00:41:44Z</time>
<name>Linksaf ’t</name>
<cmt>Linksaf ’t Jagerspaadje met de bocht mee volgen</cmt>
<desc>Linksaf ’t Jagerspaadje met de bocht mee volgen</desc>
<sym>Left_slight</sym>
<type>Waypoint</type>
</wpt>
<wpt lat="52.2084554" lon="5.1342862">
<time>2026-05-14T00:44:01Z</time>
<name>Rechtsaf o</name>
<cmt>Rechtsaf op &#39;t Jagerspaadje net na het golfveld  </cmt>
<desc>Rechtsaf op &#39;t Jagerspaadje net na het golfveld  </desc>
<sym>Right</sym>
<type>Waypoint</type>
</wpt>
<wpt lat="52.2072792" lon="5.1352151">
<time>2026-05-14T00:45:49Z</time>
<name>Rechtdoor </name>
<cmt>Rechtdoor Molenmeent oversteken. </cmt>
<desc>Rechtdoor Molenmeent oversteken. </desc>
<sym>Straight</sym>
<type>Waypoint</type>
</wpt>
<wpt lat="52.207144" lon="5.135369">
<time>2026-05-14T00:46:03Z</time>
<name>Linksaf op</name>
<cmt>Linksaf op Fietspad Molenmeent </cmt>
<desc>Linksaf op Fietspad Molenmeent </desc>
<sym>Left</sym>
<type>Waypoint</type>
</wpt>
<wpt lat="52.2075698" lon="5.1370342">
<time>2026-05-14T00:47:36Z</time>
<name>Rechtsaf n</name>
<cmt>Rechtsaf naar Frans Halslaan</cmt>
<desc>Rechtsaf naar Frans Halslaan</desc>
<sym>Right</sym>
<type>Waypoint</type>
</wpt>
<wpt lat="52.2034145" lon="5.140052">
<time>2026-05-14T00:53:40Z</time>
<name>Rechtsaf n</name>
<cmt>Rechtsaf naar Laan van Eikenrode</cmt>
<desc>Rechtsaf naar Laan van Eikenrode</desc>
<sym>Right</sym>
<type>Waypoint</type>
</wpt>
<wpt lat="52.2029761" lon="5.1385004">
<time>2026-05-14T00:55:04Z</time>
<name>FINISH</name>
<cmt>FINISH</cmt>
<desc>FINISH</desc>
<sym>Flag, Blue</sym>
<type>Waypoint</type>
</wpt>
<wpt lat="52.2034215" lon="5.1389547">
<time>2026-05-14T00:00:00Z</time>
<name>IKC Wereld</name>
<cmt>IKC Wereldwijs</cmt>
<desc>IKC Wereldwijs</desc>
<sym>Flag, Blue</sym>
<type>Waypoint</type>
</wpt>
<wpt lat="52.1940093" lon="5.1542321">
<time>2026-05-14T00:00:00Z</time>
<name>a href=htt</name>
<cmt>&#60;a href=&#39;https://cafetariaegelshoek.nl/&#39; target=&#39;_blank&#39; rel=&#39;noopener&#39;&#62;De Egelshoek &#60;/a&#62;(sponsor)</cmt>
<desc>&#60;a href=&#39;https://cafetariaegelshoek.nl/&#39; target=&#39;_blank&#39; rel=&#39;noopener&#39;&#62;De Egelshoek &#60;/a&#62;(sponsor)</desc>
<sym>Restaurant</sym>
<type>Waypoint</type>
</wpt>
<wpt lat="52.1958934" lon="5.1413119">
<time>2026-05-14T00:00:00Z</time>
<name>a href=htt</name>
<cmt>&#60;a href=&#39;http://www.spelekids.nl/&#39; target=&#39;_blank&#39;&#62;Spelekids &#60;/a&#62;(sponsor)</cmt>
<desc>&#60;a href=&#39;http://www.spelekids.nl/&#39; target=&#39;_blank&#39;&#62;Spelekids &#60;/a&#62;(sponsor)</desc>
<sym>Flag, Blue</sym>
<type>Waypoint</type>
</wpt>
<wpt lat="52.2125292" lon="5.1365778">
<time>2026-05-14T00:00:00Z</time>
<name>Pauzeplaat</name>
<cmt>Pauzeplaats</cmt>
<desc>Pauzeplaats</desc>
<sym>Restaurant</sym>
<type>Waypoint</type>
</wpt>
<wpt lat="52.2135649" lon="5.1357731">
<time>2026-05-14T00:00:00Z</time>
<name>Pauzeplaat</name>
<cmt>Pauzeplaats</cmt>
<desc>Pauzeplaats</desc>
<sym>Restaurant</sym>
<type>Waypoint</type>
</wpt>
<wpt lat="52.2096981" lon="5.1297006">
<time>2026-05-14T00:00:00Z</time>
<name>Pauzeplaat</name>
<cmt>Pauzeplaats</cmt>
<desc>Pauzeplaats</desc>
<sym>Restaurant</sym>
<type>Waypoint</type>
</wpt>
<wpt lat="52.211307" lon="5.1269728">
<time>2026-05-14T00:00:00Z</time>
<name>Pauzeplaat</name>
<cmt>Pauzeplaats</cmt>
<desc>Pauzeplaats</desc>
<sym>Restaurant</sym>
<type>Waypoint</type>
</wpt>
<wpt lat="52.2118791" lon="5.1278633">
<time>2026-05-14T00:00:00Z</time>
<name>Spelekids</name>
<cmt>Spelekids</cmt>
<desc>Spelekids</desc>
<sym>Flag, Blue</sym>
<type>Waypoint</type>
</wpt>
<wpt lat="52.2000452" lon="5.1387863">
<time>2026-05-14T00:00:00Z</time>
<name>a href=htt</name>
<cmt>&#60;a href=&#39;https://www.jumbo.com/winkel/loosdrecht/jumbo-loosdrecht-schoonhoven&#39; target=&#39;_blank&#39;&#62;Jumbo &#60;/a&#62;(sponsor)</cmt>
<desc>&#60;a href=&#39;https://www.jumbo.com/winkel/loosdrecht/jumbo-loosdrecht-schoonhoven&#39; target=&#39;_blank&#39;&#62;Jumbo &#60;/a&#62;(sponsor)</desc>
<sym>Flag, Blue</sym>
<type>Waypoint</type>
</wpt>
<wpt lat="52.2128376" lon="5.1391125">
<time>2026-05-14T00:00:00Z</time>
<name>a href=htt</name>
<cmt>&#60;a href=&#39;http://www.stephoto.nl/&#39; target=&#39;_blank&#39;&#62;Stephoto&#60;/a&#62; (sponsor)</cmt>
<desc>&#60;a href=&#39;http://www.stephoto.nl/&#39; target=&#39;_blank&#39;&#62;Stephoto&#60;/a&#62; (sponsor)</desc>
<sym>Scenic Area</sym>
<type>Waypoint</type>
</wpt>
<wpt lat="52.2099814" lon="5.1384344">
<time>2026-05-14T00:00:00Z</time>
<name>Roldtoelro</name>
<cmt>Roldtoelroute (slecht weer)</cmt>
<desc>Roldtoelroute (slecht weer)</desc>
<sym>Flag, Blue</sym>
<type>Waypoint</type>
</wpt>
<trk>
<name>A4D Loosdrecht </name>
<trkseg>
<trkpt lat="52.202968" lon="5.138455">
<ele>0</ele>
<time>2026-05-14T00:00:00Z</time></trkpt>
<trkpt lat="52.202968" lon="5.138455">
<ele>0</ele>
<time>2026-05-14T00:00:00Z</time></trkpt>
<trkpt lat="52.202948" lon="5.138464">
<ele>0</ele>
<time>2026-05-14T00:00:02Z</time></trkpt>
<trkpt lat="52.202948" lon="5.138464">
<ele>0</ele>
<time>2026-05-14T00:00:02Z</time></trkpt>
<trkpt lat="52.202953" lon="5.138482">
<ele>0</ele>
<time>2026-05-14T00:00:03Z</time></trkpt>
<trkpt lat="52.202953" lon="5.138482">
<ele>0</ele>
<time>2026-05-14T00:00:03Z</time></trkpt>
<trkpt lat="52.2034" lon="5.140107">
<ele>2</ele>
<time>2026-05-14T00:01:30Z</time></trkpt>
<trkpt lat="52.205246" lon="5.138656">
<ele>3</ele>
<time>2026-05-14T00:04:14Z</time></trkpt>
<trkpt lat="52.2060436" lon="5.1381213">
<ele>2</ele>
<time>2026-05-14T00:05:23Z</time></trkpt>
<trkpt lat="52.2060707" lon="5.1381031">
<ele>2</ele>
<time>2026-05-14T00:05:26Z</time></trkpt>
<trkpt lat="52.206268" lon="5.137971">
<ele>3</ele>
<time>2026-05-14T00:05:43Z</time></trkpt>
<trkpt lat="52.206611" lon="5.137744">
<ele>3</ele>
<time>2026-05-14T00:06:13Z</time></trkpt>
<trkpt lat="52.207035" lon="5.137462">
<ele>3</ele>
<time>2026-05-14T00:06:49Z</time></trkpt>
<trkpt lat="52.207072" lon="5.137438">
<ele>3</ele>
<time>2026-05-14T00:06:52Z</time></trkpt>
<trkpt lat="52.207086" lon="5.137429">
<ele>2</ele>
<time>2026-05-14T00:06:54Z</time></trkpt>
<trkpt lat="52.20757" lon="5.137034">
<ele>3</ele>
<time>2026-05-14T00:07:37Z</time></trkpt>
<trkpt lat="52.207521" lon="5.136863">
<ele>3</ele>
<time>2026-05-14T00:07:46Z</time></trkpt>
<trkpt lat="52.207835" lon="5.136616">
<ele>3</ele>
<time>2026-05-14T00:08:14Z</time></trkpt>
<trkpt lat="52.2077703" lon="5.1364475">
<ele>3</ele>
<time>2026-05-14T00:08:24Z</time></trkpt>
<trkpt lat="52.207319" lon="5.135233">
<ele>1</ele>
<time>2026-05-14T00:09:34Z</time></trkpt>
<trkpt lat="52.2073208" lon="5.1352316">
<ele>1</ele>
<time>2026-05-14T00:09:34Z</time></trkpt>
<trkpt lat="52.2080945" lon="5.1346251">
<ele>1</ele>
<time>2026-05-14T00:10:43Z</time></trkpt>
<trkpt lat="52.2084834" lon="5.1343676">
<ele>0</ele>
<time>2026-05-14T00:11:16Z</time></trkpt>
<trkpt lat="52.209121" lon="5.136061">
<ele>4</ele>
<time>2026-05-14T00:12:54Z</time></trkpt>
<trkpt lat="52.20986" lon="5.138568">
<ele>6</ele>
<time>2026-05-14T00:15:11Z</time></trkpt>
<trkpt lat="52.2098762" lon="5.1385553">
<ele>6</ele>
<time>2026-05-14T00:15:12Z</time></trkpt>
<trkpt lat="52.20986" lon="5.138568">
<ele>6</ele>
<time>2026-05-14T00:15:14Z</time></trkpt>
<trkpt lat="52.209965" lon="5.138941">
<ele>6</ele>
<time>2026-05-14T00:15:34Z</time></trkpt>
<trkpt lat="52.210073" lon="5.139139">
<ele>6</ele>
<time>2026-05-14T00:15:47Z</time></trkpt>
<trkpt lat="52.210279" lon="5.139888">
<ele>6</ele>
<time>2026-05-14T00:16:27Z</time></trkpt>
<trkpt lat="52.210504" lon="5.140725">
<ele>6</ele>
<time>2026-05-14T00:17:12Z</time></trkpt>
<trkpt lat="52.2105429" lon="5.1406886">
<ele>6</ele>
<time>2026-05-14T00:17:15Z</time></trkpt>
<trkpt lat="52.210599" lon="5.140627">
<ele>6</ele>
<time>2026-05-14T00:17:21Z</time></trkpt>
<trkpt lat="52.2107988" lon="5.1406265">
<ele>7</ele>
<time>2026-05-14T00:17:37Z</time></trkpt>
<trkpt lat="52.210955" lon="5.140624">
<ele>7</ele>
<time>2026-05-14T00:17:49Z</time></trkpt>
<trkpt lat="52.21101" lon="5.140391">
<ele>7</ele>
<time>2026-05-14T00:18:02Z</time></trkpt>
<trkpt lat="52.211014" lon="5.140123">
<ele>8</ele>
<time>2026-05-14T00:18:15Z</time></trkpt>
<trkpt lat="52.211178" lon="5.139929">
<ele>8</ele>
<time>2026-05-14T00:18:31Z</time></trkpt>
<trkpt lat="52.211214" lon="5.139725">
<ele>7</ele>
<time>2026-05-14T00:18:42Z</time></trkpt>
<trkpt lat="52.211272" lon="5.139571">
<ele>7</ele>
<time>2026-05-14T00:18:50Z</time></trkpt>
<trkpt lat="52.211349" lon="5.139485">
<ele>7</ele>
<time>2026-05-14T00:18:58Z</time></trkpt>
<trkpt lat="52.211534" lon="5.139447">
<ele>6</ele>
<time>2026-05-14T00:19:13Z</time></trkpt>
<trkpt lat="52.211569" lon="5.139172">
<ele>6</ele>
<time>2026-05-14T00:19:27Z</time></trkpt>
<trkpt lat="52.211691" lon="5.138951">
<ele>5</ele>
<time>2026-05-14T00:19:41Z</time></trkpt>
<trkpt lat="52.211852" lon="5.139004">
<ele>4</ele>
<time>2026-05-14T00:19:54Z</time></trkpt>
<trkpt lat="52.211992" lon="5.138989">
<ele>3</ele>
<time>2026-05-14T00:20:06Z</time></trkpt>
<trkpt lat="52.212155" lon="5.139011">
<ele>2</ele>
<time>2026-05-14T00:20:19Z</time></trkpt>
<trkpt lat="52.212261" lon="5.13882">
<ele>2</ele>
<time>2026-05-14T00:20:31Z</time></trkpt>
<trkpt lat="52.212411" lon="5.138685">
<ele>1</ele>
<time>2026-05-14T00:20:45Z</time></trkpt>
<trkpt lat="52.212094" lon="5.138015">
<ele>3</ele>
<time>2026-05-14T00:21:27Z</time></trkpt>
<trkpt lat="52.212047" lon="5.137752">
<ele>3</ele>
<time>2026-05-14T00:21:40Z</time></trkpt>
<trkpt lat="52.211946" lon="5.137457">
<ele>4</ele>
<time>2026-05-14T00:21:57Z</time></trkpt>
<trkpt lat="52.212197" lon="5.137262">
<ele>4</ele>
<time>2026-05-14T00:22:19Z</time></trkpt>
<trkpt lat="52.21243" lon="5.137157">
<ele>5</ele>
<time>2026-05-14T00:22:38Z</time></trkpt>
<trkpt lat="52.2125208" lon="5.1369824">
<ele>5</ele>
<time>2026-05-14T00:22:50Z</time></trkpt>
<trkpt lat="52.212521" lon="5.136982">
<ele>5</ele>
<time>2026-05-14T00:22:50Z</time></trkpt>
<trkpt lat="52.212916" lon="5.136679">
<ele>5</ele>
<time>2026-05-14T00:23:25Z</time></trkpt>
<trkpt lat="52.213146" lon="5.136529">
<ele>5</ele>
<time>2026-05-14T00:23:45Z</time></trkpt>
<trkpt lat="52.2134921" lon="5.1362221">
<ele>5</ele>
<time>2026-05-14T00:24:16Z</time></trkpt>
<trkpt lat="52.213561" lon="5.136161">
<ele>4</ele>
<time>2026-05-14T00:24:22Z</time></trkpt>
<trkpt lat="52.214004" lon="5.13567">
<ele>4</ele>
<time>2026-05-14T00:25:05Z</time></trkpt>
<trkpt lat="52.214247" lon="5.13554">
<ele>4</ele>
<time>2026-05-14T00:25:26Z</time></trkpt>
<trkpt lat="52.2142029" lon="5.1354018">
<ele>4</ele>
<time>2026-05-14T00:25:33Z</time></trkpt>
<trkpt lat="52.214108" lon="5.135104">
<ele>6</ele>
<time>2026-05-14T00:25:50Z</time></trkpt>
<trkpt lat="52.213914" lon="5.134617">
<ele>6</ele>
<time>2026-05-14T00:26:18Z</time></trkpt>
<trkpt lat="52.2138625" lon="5.1345185">
<ele>6</ele>
<time>2026-05-14T00:26:25Z</time></trkpt>
<trkpt lat="52.213846" lon="5.134487">
<ele>6</ele>
<time>2026-05-14T00:26:27Z</time></trkpt>
<trkpt lat="52.214" lon="5.134273">
<ele>6</ele>
<time>2026-05-14T00:26:43Z</time></trkpt>
<trkpt lat="52.214149" lon="5.13412">
<ele>6</ele>
<time>2026-05-14T00:26:57Z</time></trkpt>
<trkpt lat="52.214277" lon="5.134063">
<ele>5</ele>
<time>2026-05-14T00:27:08Z</time></trkpt>
<trkpt lat="52.214378" lon="5.134074">
<ele>5</ele>
<time>2026-05-14T00:27:16Z</time></trkpt>
<trkpt lat="52.21458" lon="5.134169">
<ele>5</ele>
<time>2026-05-14T00:27:33Z</time></trkpt>
<trkpt lat="52.214702" lon="5.134153">
<ele>4</ele>
<time>2026-05-14T00:27:43Z</time></trkpt>
<trkpt lat="52.214812" lon="5.134008">
<ele>4</ele>
<time>2026-05-14T00:27:54Z</time></trkpt>
<trkpt lat="52.214659" lon="5.133722">
<ele>4</ele>
<time>2026-05-14T00:28:13Z</time></trkpt>
<trkpt lat="52.214506" lon="5.133533">
<ele>4</ele>
<time>2026-05-14T00:28:28Z</time></trkpt>
<trkpt lat="52.214367" lon="5.133279">
<ele>4</ele>
<time>2026-05-14T00:28:45Z</time></trkpt>
<trkpt lat="52.213891" lon="5.13226">
<ele>2</ele>
<time>2026-05-14T00:29:48Z</time></trkpt>
<trkpt lat="52.213416" lon="5.131353">
<ele>1</ele>
<time>2026-05-14T00:30:46Z</time></trkpt>
<trkpt lat="52.212817" lon="5.130275">
<ele>1</ele>
<time>2026-05-14T00:31:58Z</time></trkpt>
<trkpt lat="52.212637" lon="5.129996">
<ele>1</ele>
<time>2026-05-14T00:32:18Z</time></trkpt>
<trkpt lat="52.212593" lon="5.129978">
<ele>1</ele>
<time>2026-05-14T00:32:21Z</time></trkpt>
<trkpt lat="52.211687" lon="5.128827">
<ele>0</ele>
<time>2026-05-14T00:33:53Z</time></trkpt>
<trkpt lat="52.211694" lon="5.128776">
<ele>0</ele>
<time>2026-05-14T00:33:56Z</time></trkpt>
<trkpt lat="52.211908" lon="5.12829">
<ele>0</ele>
<time>2026-05-14T00:34:25Z</time></trkpt>
<trkpt lat="52.2119" lon="5.128185">
<ele>0</ele>
<time>2026-05-14T00:34:30Z</time></trkpt>
<trkpt lat="52.211162" lon="5.127315">
<ele>0</ele>
<time>2026-05-14T00:35:43Z</time></trkpt>
<trkpt lat="52.211056" lon="5.127586">
<ele>0</ele>
<time>2026-05-14T00:35:59Z</time></trkpt>
<trkpt lat="52.210935" lon="5.127738">
<ele>0</ele>
<time>2026-05-14T00:36:11Z</time></trkpt>
<trkpt lat="52.210798" lon="5.127712">
<ele>0</ele>
<time>2026-05-14T00:36:22Z</time></trkpt>
<trkpt lat="52.210756" lon="5.127727">
<ele>0</ele>
<time>2026-05-14T00:36:26Z</time></trkpt>
<trkpt lat="52.2107" lon="5.127793">
<ele>0</ele>
<time>2026-05-14T00:36:31Z</time></trkpt>
<trkpt lat="52.210592" lon="5.127956">
<ele>0</ele>
<time>2026-05-14T00:36:43Z</time></trkpt>
<trkpt lat="52.21052" lon="5.12814">
<ele>0</ele>
<time>2026-05-14T00:36:54Z</time></trkpt>
<trkpt lat="52.21046" lon="5.12824">
<ele>0</ele>
<time>2026-05-14T00:37:01Z</time></trkpt>
<trkpt lat="52.209703" lon="5.129326">
<ele>0</ele>
<time>2026-05-14T00:38:22Z</time></trkpt>
<trkpt lat="52.209653" lon="5.12924">
<ele>0</ele>
<time>2026-05-14T00:38:27Z</time></trkpt>
<trkpt lat="52.2078077" lon="5.131889">
<ele>-1</ele>
<time>2026-05-14T00:41:44Z</time></trkpt>
<trkpt lat="52.207784" lon="5.131923">
<ele>-1</ele>
<time>2026-05-14T00:41:47Z</time></trkpt>
<trkpt lat="52.207739" lon="5.132013">
<ele>-1</ele>
<time>2026-05-14T00:41:53Z</time></trkpt>
<trkpt lat="52.20771" lon="5.132256">
<ele>-1</ele>
<time>2026-05-14T00:42:05Z</time></trkpt>
<trkpt lat="52.207723" lon="5.132369">
<ele>-1</ele>
<time>2026-05-14T00:42:10Z</time></trkpt>
<trkpt lat="52.2084554" lon="5.1342862">
<ele>0</ele>
<time>2026-05-14T00:44:01Z</time></trkpt>
<trkpt lat="52.208474" lon="5.134335">
<ele>0</ele>
<time>2026-05-14T00:44:04Z</time></trkpt>
<trkpt lat="52.2081336" lon="5.1345286">
<ele>1</ele>
<time>2026-05-14T00:44:33Z</time></trkpt>
<trkpt lat="52.2072792" lon="5.1352151">
<ele>1</ele>
<time>2026-05-14T00:45:49Z</time></trkpt>
<trkpt lat="52.2072785" lon="5.1352157">
<ele>1</ele>
<time>2026-05-14T00:45:49Z</time></trkpt>
<trkpt lat="52.207144" lon="5.135369">
<ele>1</ele>
<time>2026-05-14T00:46:03Z</time></trkpt>
<trkpt lat="52.207144" lon="5.135369">
<ele>1</ele>
<time>2026-05-14T00:46:03Z</time></trkpt>
<trkpt lat="52.207094" lon="5.135412">
<ele>1</ele>
<time>2026-05-14T00:46:07Z</time></trkpt>
<trkpt lat="52.20757" lon="5.137034">
<ele>3</ele>
<time>2026-05-14T00:47:35Z</time></trkpt>
<trkpt lat="52.2075698" lon="5.1370342">
<ele>3</ele>
<time>2026-05-14T00:47:36Z</time></trkpt>
<trkpt lat="52.205146" lon="5.1386967">
<ele>3</ele>
<time>2026-05-14T00:51:06Z</time></trkpt>
<trkpt lat="52.2034151" lon="5.1400539">
<ele>2</ele>
<time>2026-05-14T00:53:40Z</time></trkpt>
<trkpt lat="52.2034145" lon="5.140052">
<ele>2</ele>
<time>2026-05-14T00:53:40Z</time></trkpt>
<trkpt lat="52.2029761" lon="5.1385004">
<ele>4</ele>
<time>2026-05-14T00:55:04Z</time></trkpt>
</trkseg>
</trk>
</gpx>