<?xml version="1.0" encoding="UTF-8" standalone="no" ?>
<gpx xmlns="http://www.topografix.com/GPX/1/1" creator="www.plotaroute.com" version="1.1"  xmlns:xsi="http://www.w3.org/2001/XMLSchema-instance" xsi:schemaLocation="http://www.topografix.com/GPX/1/1 http://www.topografix.com/GPX/1/1/gpx.xsd">
<metadata>
<desc>Route created on plotaroute.com</desc>
</metadata>
<wpt lat="52.201765" lon="5.139036">
<time>2026-01-25T00:01:36Z</time>
<name>Linksaf</name>
<cmt>Linksaf</cmt>
<desc>Linksaf</desc>
<sym>Left</sym>
<type>Waypoint</type>
</wpt>
<wpt lat="52.201777" lon="5.139513">
<time>2026-01-25T00:02:00Z</time>
<name>Rechtsaf</name>
<cmt>Rechtsaf</cmt>
<desc>Rechtsaf</desc>
<sym>Straight</sym>
<type>Waypoint</type>
</wpt>
<wpt lat="52.201764" lon="5.140056">
<time>2026-01-25T00:02:29Z</time>
<name>Rechtsaf o</name>
<cmt>Rechtsaf op Acacialaan</cmt>
<desc>Rechtsaf op Acacialaan</desc>
<sym>Straight</sym>
<type>Waypoint</type>
</wpt>
<wpt lat="52.201628" lon="5.140136">
<time>2026-01-25T00:02:40Z</time>
<name>Linksaf op</name>
<cmt>Linksaf op Meidoornlaan</cmt>
<desc>Linksaf op Meidoornlaan</desc>
<sym>Left</sym>
<type>Waypoint</type>
</wpt>
<wpt lat="52.200856" lon="5.143618">
<time>2026-01-25T00:06:29Z</time>
<name>Linksaf op</name>
<cmt>Linksaf op Lindelaan</cmt>
<desc>Linksaf op Lindelaan</desc>
<sym>Left</sym>
<type>Waypoint</type>
</wpt>
<wpt lat="52.201079" lon="5.145279">
<time>2026-01-25T00:07:53Z</time>
<name>Linksaf op</name>
<cmt>Linksaf op Rading (Rading Oversteken)</cmt>
<desc>Linksaf op Rading (Rading Oversteken)</desc>
<sym>Left</sym>
<type>Waypoint</type>
</wpt>
<wpt lat="52.201771" lon="5.144896">
<time>2026-01-25T00:08:52Z</time>
<name>Rechts op </name>
<cmt>Rechts op Klinkerweg Zonnestraal, langs kinderboerderij</cmt>
<desc>Rechts op Klinkerweg Zonnestraal, langs kinderboerderij</desc>
<sym>Right</sym>
<type>Waypoint</type>
</wpt>
<wpt lat="52.2018079" lon="5.1493809">
<time>2026-01-25T00:12:32Z</time>
<name>Rechtdoor </name>
<cmt>Rechtdoor Weg vervolgen langs de Koepel (nr. 11)</cmt>
<desc>Rechtdoor Weg vervolgen langs de Koepel (nr. 11)</desc>
<sym>Left_slight</sym>
<type>Waypoint</type>
</wpt>
<wpt lat="52.2014237" lon="5.1511392">
<time>2026-01-25T00:14:30Z</time>
<name>Linksaf Bi</name>
<cmt>Linksaf Bij zwart-houten huis</cmt>
<desc>Linksaf Bij zwart-houten huis</desc>
<sym>Left_slight</sym>
<type>Waypoint</type>
</wpt>
<wpt lat="52.201698" lon="5.1515723">
<time>2026-01-25T00:15:01Z</time>
<name>Links aanh</name>
<cmt>Links aanhouden langs Dagcentrum</cmt>
<desc>Links aanhouden langs Dagcentrum</desc>
<sym>Left_slight</sym>
<type>Waypoint</type>
</wpt>
<wpt lat="52.202981" lon="5.152428">
<time>2026-01-25T00:16:57Z</time>
<name>Schuin lin</name>
<cmt>Schuin links Weg oversteken</cmt>
<desc>Schuin links Weg oversteken</desc>
<sym>Left_slight</sym>
<type>Waypoint</type>
</wpt>
<wpt lat="52.203107" lon="5.152153">
<time>2026-01-25T00:17:14Z</time>
<name>Rechtsaf o</name>
<cmt>Rechtsaf op Jan van Zutphenpad</cmt>
<desc>Rechtsaf op Jan van Zutphenpad</desc>
<sym>Right</sym>
<type>Waypoint</type>
</wpt>
<wpt lat="52.204973" lon="5.154595">
<time>2026-01-25T00:20:27Z</time>
<name>Links aanh</name>
<cmt>Links aanhouden op Jan van Zutphenpad</cmt>
<desc>Links aanhouden op Jan van Zutphenpad</desc>
<sym>Left_slight</sym>
<type>Waypoint</type>
</wpt>
<wpt lat="52.2056644" lon="5.1553804">
<time>2026-01-25T00:21:35Z</time>
<name>Rechtdoor </name>
<cmt>Rechtdoor Over wildrooster (Landgoed Zonnestraal uit)</cmt>
<desc>Rechtdoor Over wildrooster (Landgoed Zonnestraal uit)</desc>
<sym>Straight</sym>
<type>Waypoint</type>
</wpt>
<wpt lat="52.207415" lon="5.157363">
<time>2026-01-25T00:24:27Z</time>
<name>Linksaf Fi</name>
<cmt>Linksaf Fietspad (parallel aan Kolhornseweg),  Zuiderheideweg</cmt>
<desc>Linksaf Fietspad (parallel aan Kolhornseweg),  Zuiderheideweg</desc>
<sym>Left</sym>
<type>Waypoint</type>
</wpt>
<wpt lat="52.2096339" lon="5.150749">
<time>2026-01-25T00:30:42Z</time>
<name>Rechtdoor </name>
<cmt>Rechtdoor Over wildrooster </cmt>
<desc>Rechtdoor Over wildrooster </desc>
<sym>Straight</sym>
<type>Waypoint</type>
</wpt>
<wpt lat="52.210349" lon="5.148654">
<time>2026-01-25T00:32:43Z</time>
<name>Linksaf Fi</name>
<cmt>Linksaf Fietspad V. Ghentlaan (bij Ps 62441/002) </cmt>
<desc>Linksaf Fietspad V. Ghentlaan (bij Ps 62441/002) </desc>
<sym>Left</sym>
<type>Waypoint</type>
</wpt>
<wpt lat="52.2092657" lon="5.1455298">
<time>2026-01-25T00:35:43Z</time>
<name>Rechtdoor </name>
<cmt>Rechtdoor Hoofdweg Zonnestraal oversteken</cmt>
<desc>Rechtdoor Hoofdweg Zonnestraal oversteken</desc>
<sym>Straight</sym>
<type>Waypoint</type>
</wpt>
<wpt lat="52.208305" lon="5.139937">
<time>2026-01-25T00:40:28Z</time>
<name>Rechtdoor </name>
<cmt>Rechtdoor Rotonde, Molenmeent </cmt>
<desc>Rechtdoor Rotonde, Molenmeent </desc>
<sym>Straight</sym>
<type>Waypoint</type>
</wpt>
<wpt lat="52.2075921" lon="5.1371273">
<time>2026-01-25T00:43:06Z</time>
<name>Rechtdoor </name>
<cmt>Rechtdoor Frans Halslaan oversteken, daarna Jan Steenlaan oversteken</cmt>
<desc>Rechtdoor Frans Halslaan oversteken, daarna Jan Steenlaan oversteken</desc>
<sym>Straight</sym>
<type>Waypoint</type>
</wpt>
<wpt lat="52.204981" lon="5.128669">
<time>2026-01-25T00:50:52Z</time>
<name>Linksaf Ni</name>
<cmt>Linksaf Nieuw Loosdrechtsedijk, voorbij Landgoed Eikenrode</cmt>
<desc>Linksaf Nieuw Loosdrechtsedijk, voorbij Landgoed Eikenrode</desc>
<sym>Left_slight</sym>
<type>Waypoint</type>
</wpt>
<wpt lat="52.202486" lon="5.131887">
<time>2026-01-25T00:55:15Z</time>
<name>Linksaf op</name>
<cmt>Linksaf op Het Zwarte Pad</cmt>
<desc>Linksaf op Het Zwarte Pad</desc>
<sym>Left_slight</sym>
<type>Waypoint</type>
</wpt>
<wpt lat="52.20291" lon="5.136899">
<time>2026-01-25T00:59:23Z</time>
<name>Rechtsaf e</name>
<cmt>Rechtsaf einde van Het Zwarte Pad</cmt>
<desc>Rechtsaf einde van Het Zwarte Pad</desc>
<sym>Right</sym>
<type>Waypoint</type>
</wpt>
<wpt lat="52.202596" lon="5.137044">
<time>2026-01-25T00:59:49Z</time>
<name>Linksaf op</name>
<cmt>Linksaf op Laan van Eikenrode</cmt>
<desc>Linksaf op Laan van Eikenrode</desc>
<sym>Left</sym>
<type>Waypoint</type>
</wpt>
<wpt lat="52.202889" lon="5.138376">
<time>2026-01-25T01:01:00Z</time>
<name>FINISH</name>
<cmt>FINISH</cmt>
<desc>FINISH</desc>
<sym>Flag, Blue</sym>
<type>Waypoint</type>
</wpt>
<wpt lat="52.2034215" lon="5.1389547">
<time>2026-01-25T00:00:00Z</time>
<name>IKC Wereld</name>
<cmt>IKC Wereldwijs</cmt>
<desc>IKC Wereldwijs</desc>
<sym>Flag, Blue</sym>
<type>Waypoint</type>
</wpt>
<wpt lat="52.1940093" lon="5.1542321">
<time>2026-01-25T00:00:00Z</time>
<name>De Egelsho</name>
<cmt>De Egelshoek (Sponsor)</cmt>
<desc>De Egelshoek (Sponsor)</desc>
<sym>Restaurant</sym>
<type>Waypoint</type>
</wpt>
<wpt lat="52.1958934" lon="5.1413119">
<time>2026-01-25T00:00:00Z</time>
<name>a href=htt</name>
<cmt>&#60;a href=&#39;http://www.spelekids.nl/&#39; target=&#39;_blank&#39;&#62;Spelekids &#60;/a&#62;(sponsor)</cmt>
<desc>&#60;a href=&#39;http://www.spelekids.nl/&#39; target=&#39;_blank&#39;&#62;Spelekids &#60;/a&#62;(sponsor)</desc>
<sym>Flag, Blue</sym>
<type>Waypoint</type>
</wpt>
<wpt lat="52.2016052" lon="5.1489723">
<time>2026-01-25T00:00:00Z</time>
<name>Pauzeplaat</name>
<cmt>Pauzeplaats</cmt>
<desc>Pauzeplaats</desc>
<sym>Restaurant</sym>
<type>Waypoint</type>
</wpt>
<wpt lat="52.2080509" lon="5.1556885">
<time>2026-01-25T00:00:00Z</time>
<name>Pauzeplaat</name>
<cmt>Pauzeplaats</cmt>
<desc>Pauzeplaats</desc>
<sym>Restaurant</sym>
<type>Waypoint</type>
</wpt>
<wpt lat="52.2084586" lon="5.1546156">
<time>2026-01-25T00:00:00Z</time>
<name>Pauzeplaat</name>
<cmt>Pauzeplaats</cmt>
<desc>Pauzeplaats</desc>
<sym>Restaurant</sym>
<type>Waypoint</type>
</wpt>
<wpt lat="52.2074195" lon="5.156976">
<time>2026-01-25T00:00:00Z</time>
<name>Pauzeplaat</name>
<cmt>Pauzeplaats</cmt>
<desc>Pauzeplaats</desc>
<sym>Restaurant</sym>
<type>Waypoint</type>
</wpt>
<trk>
<name>A4D Loosdrecht </name>
<trkseg>
<trkpt lat="52.202915" lon="5.138481">
<ele>1</ele>
<time>2026-01-25T00:00:00Z</time></trkpt>
<trkpt lat="52.20246" lon="5.13874">
<ele>3</ele>
<time>2026-01-25T00:00:39Z</time></trkpt>
<trkpt lat="52.202117" lon="5.138902">
<ele>3</ele>
<time>2026-01-25T00:01:07Z</time></trkpt>
<trkpt lat="52.201765" lon="5.139036">
<ele>3</ele>
<time>2026-01-25T00:01:36Z</time></trkpt>
<trkpt lat="52.201777" lon="5.139513">
<ele>3</ele>
<time>2026-01-25T00:02:00Z</time></trkpt>
<trkpt lat="52.201735" lon="5.139547">
<ele>3</ele>
<time>2026-01-25T00:02:03Z</time></trkpt>
<trkpt lat="52.20176" lon="5.13999">
<ele>3</ele>
<time>2026-01-25T00:02:25Z</time></trkpt>
<trkpt lat="52.201764" lon="5.140056">
<ele>3</ele>
<time>2026-01-25T00:02:29Z</time></trkpt>
<trkpt lat="52.201628" lon="5.140136">
<ele>3</ele>
<time>2026-01-25T00:02:40Z</time></trkpt>
<trkpt lat="52.201647" lon="5.140219">
<ele>3</ele>
<time>2026-01-25T00:02:44Z</time></trkpt>
<trkpt lat="52.201669" lon="5.140978">
<ele>4</ele>
<time>2026-01-25T00:03:22Z</time></trkpt>
<trkpt lat="52.201665" lon="5.141933">
<ele>4</ele>
<time>2026-01-25T00:04:09Z</time></trkpt>
<trkpt lat="52.201683" lon="5.143432">
<ele>5</ele>
<time>2026-01-25T00:05:22Z</time></trkpt>
<trkpt lat="52.200856" lon="5.143618">
<ele>3</ele>
<time>2026-01-25T00:06:29Z</time></trkpt>
<trkpt lat="52.200872" lon="5.144052">
<ele>4</ele>
<time>2026-01-25T00:06:51Z</time></trkpt>
<trkpt lat="52.201026" lon="5.14499">
<ele>3</ele>
<time>2026-01-25T00:07:38Z</time></trkpt>
<trkpt lat="52.201039" lon="5.145064">
<ele>3</ele>
<time>2026-01-25T00:07:42Z</time></trkpt>
<trkpt lat="52.201079" lon="5.145279">
<ele>3</ele>
<time>2026-01-25T00:07:53Z</time></trkpt>
<trkpt lat="52.201322" lon="5.145088">
<ele>3</ele>
<time>2026-01-25T00:08:15Z</time></trkpt>
<trkpt lat="52.201386" lon="5.145061">
<ele>4</ele>
<time>2026-01-25T00:08:20Z</time></trkpt>
<trkpt lat="52.201767" lon="5.144898">
<ele>4</ele>
<time>2026-01-25T00:08:52Z</time></trkpt>
<trkpt lat="52.201771" lon="5.144896">
<ele>4</ele>
<time>2026-01-25T00:08:52Z</time></trkpt>
<trkpt lat="52.201771" lon="5.14492">
<ele>4</ele>
<time>2026-01-25T00:08:53Z</time></trkpt>
<trkpt lat="52.201771" lon="5.14492">
<ele>4</ele>
<time>2026-01-25T00:08:53Z</time></trkpt>
<trkpt lat="52.2017714" lon="5.1450108">
<ele>4</ele>
<time>2026-01-25T00:08:58Z</time></trkpt>
<trkpt lat="52.201786" lon="5.148754">
<ele>6</ele>
<time>2026-01-25T00:12:01Z</time></trkpt>
<trkpt lat="52.201796" lon="5.149011">
<ele>7</ele>
<time>2026-01-25T00:12:14Z</time></trkpt>
<trkpt lat="52.201807" lon="5.149378">
<ele>7</ele>
<time>2026-01-25T00:12:32Z</time></trkpt>
<trkpt lat="52.2018079" lon="5.1493809">
<ele>7</ele>
<time>2026-01-25T00:12:32Z</time></trkpt>
<trkpt lat="52.201849" lon="5.149511">
<ele>7</ele>
<time>2026-01-25T00:12:40Z</time></trkpt>
<trkpt lat="52.202056" lon="5.149988">
<ele>7</ele>
<time>2026-01-25T00:13:08Z</time></trkpt>
<trkpt lat="52.202025" lon="5.150164">
<ele>7</ele>
<time>2026-01-25T00:13:17Z</time></trkpt>
<trkpt lat="52.201685" lon="5.150544">
<ele>8</ele>
<time>2026-01-25T00:13:50Z</time></trkpt>
<trkpt lat="52.201422" lon="5.150913">
<ele>8</ele>
<time>2026-01-25T00:14:18Z</time></trkpt>
<trkpt lat="52.201403" lon="5.151021">
<ele>8</ele>
<time>2026-01-25T00:14:24Z</time></trkpt>
<trkpt lat="52.2014237" lon="5.1511392">
<ele>8</ele>
<time>2026-01-25T00:14:30Z</time></trkpt>
<trkpt lat="52.201431" lon="5.151181">
<ele>8</ele>
<time>2026-01-25T00:14:32Z</time></trkpt>
<trkpt lat="52.20149" lon="5.151343">
<ele>8</ele>
<time>2026-01-25T00:14:41Z</time></trkpt>
<trkpt lat="52.201697" lon="5.151572">
<ele>7</ele>
<time>2026-01-25T00:15:01Z</time></trkpt>
<trkpt lat="52.201698" lon="5.1515723">
<ele>7</ele>
<time>2026-01-25T00:15:01Z</time></trkpt>
<trkpt lat="52.201931" lon="5.15163">
<ele>7</ele>
<time>2026-01-25T00:15:20Z</time></trkpt>
<trkpt lat="52.202021" lon="5.151577">
<ele>7</ele>
<time>2026-01-25T00:15:28Z</time></trkpt>
<trkpt lat="52.202148" lon="5.151592">
<ele>6</ele>
<time>2026-01-25T00:15:38Z</time></trkpt>
<trkpt lat="52.202411" lon="5.15172">
<ele>6</ele>
<time>2026-01-25T00:16:00Z</time></trkpt>
<trkpt lat="52.202981" lon="5.152428">
<ele>9</ele>
<time>2026-01-25T00:16:57Z</time></trkpt>
<trkpt lat="52.203107" lon="5.152153">
<ele>9</ele>
<time>2026-01-25T00:17:14Z</time></trkpt>
<trkpt lat="52.204135" lon="5.153279">
<ele>9</ele>
<time>2026-01-25T00:18:53Z</time></trkpt>
<trkpt lat="52.204758" lon="5.154168">
<ele>11</ele>
<time>2026-01-25T00:20:00Z</time></trkpt>
<trkpt lat="52.204878" lon="5.15438">
<ele>11</ele>
<time>2026-01-25T00:20:14Z</time></trkpt>
<trkpt lat="52.204973" lon="5.154595">
<ele>11</ele>
<time>2026-01-25T00:20:27Z</time></trkpt>
<trkpt lat="52.205082" lon="5.154776">
<ele>11</ele>
<time>2026-01-25T00:20:39Z</time></trkpt>
<trkpt lat="52.205219" lon="5.154939">
<ele>11</ele>
<time>2026-01-25T00:20:53Z</time></trkpt>
<trkpt lat="52.2056644" lon="5.1553804">
<ele>10</ele>
<time>2026-01-25T00:21:35Z</time></trkpt>
<trkpt lat="52.205665" lon="5.155381">
<ele>10</ele>
<time>2026-01-25T00:21:35Z</time></trkpt>
<trkpt lat="52.206379" lon="5.156299">
<ele>8</ele>
<time>2026-01-25T00:22:48Z</time></trkpt>
<trkpt lat="52.206925" lon="5.15677">
<ele>6</ele>
<time>2026-01-25T00:23:37Z</time></trkpt>
<trkpt lat="52.207172" lon="5.157153">
<ele>5</ele>
<time>2026-01-25T00:24:05Z</time></trkpt>
<trkpt lat="52.207415" lon="5.157363">
<ele>5</ele>
<time>2026-01-25T00:24:27Z</time></trkpt>
<trkpt lat="52.208485" lon="5.155272">
<ele>6</ele>
<time>2026-01-25T00:26:40Z</time></trkpt>
<trkpt lat="52.208587" lon="5.154832">
<ele>6</ele>
<time>2026-01-25T00:27:03Z</time></trkpt>
<trkpt lat="52.208711" lon="5.154589">
<ele>6</ele>
<time>2026-01-25T00:27:19Z</time></trkpt>
<trkpt lat="52.208983" lon="5.153744">
<ele>7</ele>
<time>2026-01-25T00:28:06Z</time></trkpt>
<trkpt lat="52.209585" lon="5.151045">
<ele>7</ele>
<time>2026-01-25T00:30:27Z</time></trkpt>
<trkpt lat="52.2096339" lon="5.150749">
<ele>7</ele>
<time>2026-01-25T00:30:42Z</time></trkpt>
<trkpt lat="52.209648" lon="5.150664">
<ele>7</ele>
<time>2026-01-25T00:30:46Z</time></trkpt>
<trkpt lat="52.209816" lon="5.149707">
<ele>6</ele>
<time>2026-01-25T00:31:35Z</time></trkpt>
<trkpt lat="52.209895" lon="5.149507">
<ele>5</ele>
<time>2026-01-25T00:31:47Z</time></trkpt>
<trkpt lat="52.210356" lon="5.148705">
<ele>4</ele>
<time>2026-01-25T00:32:41Z</time></trkpt>
<trkpt lat="52.210349" lon="5.148654">
<ele>4</ele>
<time>2026-01-25T00:32:43Z</time></trkpt>
<trkpt lat="52.210056" lon="5.148173">
<ele>5</ele>
<time>2026-01-25T00:33:17Z</time></trkpt>
<trkpt lat="52.209794" lon="5.147592">
<ele>5</ele>
<time>2026-01-25T00:33:52Z</time></trkpt>
<trkpt lat="52.209543" lon="5.146822">
<ele>4</ele>
<time>2026-01-25T00:34:35Z</time></trkpt>
<trkpt lat="52.209338" lon="5.146038">
<ele>4</ele>
<time>2026-01-25T00:35:17Z</time></trkpt>
<trkpt lat="52.2092657" lon="5.1455298">
<ele>3</ele>
<time>2026-01-25T00:35:43Z</time></trkpt>
<trkpt lat="52.209208" lon="5.145124">
<ele>2</ele>
<time>2026-01-25T00:36:03Z</time></trkpt>
<trkpt lat="52.208475" lon="5.140849">
<ele>0</ele>
<time>2026-01-25T00:39:41Z</time></trkpt>
<trkpt lat="52.208305" lon="5.139937">
<ele>1</ele>
<time>2026-01-25T00:40:28Z</time></trkpt>
<trkpt lat="52.20839" lon="5.139895">
<ele>1</ele>
<time>2026-01-25T00:40:35Z</time></trkpt>
<trkpt lat="52.208304" lon="5.13969">
<ele>2</ele>
<time>2026-01-25T00:40:47Z</time></trkpt>
<trkpt lat="52.208199" lon="5.139356">
<ele>3</ele>
<time>2026-01-25T00:41:06Z</time></trkpt>
<trkpt lat="52.207987" lon="5.138391">
<ele>4</ele>
<time>2026-01-25T00:41:56Z</time></trkpt>
<trkpt lat="52.207748" lon="5.137664">
<ele>3</ele>
<time>2026-01-25T00:42:36Z</time></trkpt>
<trkpt lat="52.2075921" lon="5.1371273">
<ele>3</ele>
<time>2026-01-25T00:43:06Z</time></trkpt>
<trkpt lat="52.207094" lon="5.135412">
<ele>1</ele>
<time>2026-01-25T00:44:39Z</time></trkpt>
<trkpt lat="52.205519" lon="5.130172">
<ele>1</ele>
<time>2026-01-25T00:49:26Z</time></trkpt>
<trkpt lat="52.20518" lon="5.129057">
<ele>3</ele>
<time>2026-01-25T00:50:27Z</time></trkpt>
<trkpt lat="52.204981" lon="5.128669">
<ele>3</ele>
<time>2026-01-25T00:50:52Z</time></trkpt>
<trkpt lat="52.204917" lon="5.128645">
<ele>3</ele>
<time>2026-01-25T00:50:57Z</time></trkpt>
<trkpt lat="52.204843" lon="5.128569">
<ele>3</ele>
<time>2026-01-25T00:51:04Z</time></trkpt>
<trkpt lat="52.2046988" lon="5.128687">
<ele>3</ele>
<time>2026-01-25T00:51:17Z</time></trkpt>
<trkpt lat="52.2043414" lon="5.1293224">
<ele>3</ele>
<time>2026-01-25T00:51:59Z</time></trkpt>
<trkpt lat="52.2039313" lon="5.129997">
<ele>5</ele>
<time>2026-01-25T00:52:46Z</time></trkpt>
<trkpt lat="52.2038567" lon="5.1301376">
<ele>6</ele>
<time>2026-01-25T00:52:55Z</time></trkpt>
<trkpt lat="52.203832" lon="5.130194">
<ele>6</ele>
<time>2026-01-25T00:52:58Z</time></trkpt>
<trkpt lat="52.203754" lon="5.13031">
<ele>7</ele>
<time>2026-01-25T00:53:07Z</time></trkpt>
<trkpt lat="52.20288" lon="5.131424">
<ele>9</ele>
<time>2026-01-25T00:54:36Z</time></trkpt>
<trkpt lat="52.202486" lon="5.131887">
<ele>8</ele>
<time>2026-01-25T00:55:15Z</time></trkpt>
<trkpt lat="52.202539" lon="5.132211">
<ele>8</ele>
<time>2026-01-25T00:55:31Z</time></trkpt>
<trkpt lat="52.202597" lon="5.132781">
<ele>8</ele>
<time>2026-01-25T00:55:59Z</time></trkpt>
<trkpt lat="52.202808" lon="5.135192">
<ele>7</ele>
<time>2026-01-25T00:57:59Z</time></trkpt>
<trkpt lat="52.20291" lon="5.136899">
<ele>5</ele>
<time>2026-01-25T00:59:23Z</time></trkpt>
<trkpt lat="52.202596" lon="5.137044">
<ele>4</ele>
<time>2026-01-25T00:59:49Z</time></trkpt>
<trkpt lat="52.20264" lon="5.137576">
<ele>4</ele>
<time>2026-01-25T01:00:16Z</time></trkpt>
<trkpt lat="52.202715" lon="5.137694">
<ele>5</ele>
<time>2026-01-25T01:00:24Z</time></trkpt>
<trkpt lat="52.202889" lon="5.138376">
<ele>4</ele>
<time>2026-01-25T01:01:00Z</time></trkpt>
</trkseg>
</trk>
</gpx>