<?xml version="1.0" encoding="UTF-8" standalone="no" ?>
<gpx xmlns="http://www.topografix.com/GPX/1/1" creator="www.plotaroute.com" version="1.1"  xmlns:xsi="http://www.w3.org/2001/XMLSchema-instance" xsi:schemaLocation="http://www.topografix.com/GPX/1/1 http://www.topografix.com/GPX/1/1/gpx.xsd">
<metadata>
<desc>Route created on plotaroute.com</desc>
</metadata>
<trk>
<name>A4D Loosdrecht 2026 Maandag 10km V2</name>
<trkseg>
<trkpt lat="52.202952" lon="5.138462">
<ele>0</ele>
<time>2026-05-14T00:00:00Z</time></trkpt>
<trkpt lat="52.202952" lon="5.138462">
<ele>0</ele>
<time>2026-05-14T00:00:00Z</time></trkpt>
<trkpt lat="52.202928" lon="5.138475">
<ele>0</ele>
<time>2026-05-14T00:00:02Z</time></trkpt>
<trkpt lat="52.202928" lon="5.138475">
<ele>0</ele>
<time>2026-05-14T00:00:02Z</time></trkpt>
<trkpt lat="52.202928" lon="5.138475">
<ele>0</ele>
<time>2026-05-14T00:00:02Z</time></trkpt>
<trkpt lat="52.202915" lon="5.138481">
<ele>1</ele>
<time>2026-05-14T00:00:03Z</time></trkpt>
<trkpt lat="52.2029127" lon="5.1384823">
<ele>1</ele>
<time>2026-05-14T00:00:03Z</time></trkpt>
<trkpt lat="52.202854" lon="5.1385157">
<ele>1</ele>
<time>2026-05-14T00:00:08Z</time></trkpt>
<trkpt lat="52.20246" lon="5.13874">
<ele>3</ele>
<time>2026-05-14T00:00:42Z</time></trkpt>
<trkpt lat="52.202117" lon="5.138902">
<ele>3</ele>
<time>2026-05-14T00:01:10Z</time></trkpt>
<trkpt lat="52.201765" lon="5.139036">
<ele>3</ele>
<time>2026-05-14T00:01:39Z</time></trkpt>
<trkpt lat="52.20152" lon="5.13911">
<ele>3</ele>
<time>2026-05-14T00:01:59Z</time></trkpt>
<trkpt lat="52.200816" lon="5.139245">
<ele>3</ele>
<time>2026-05-14T00:02:56Z</time></trkpt>
<trkpt lat="52.200781" lon="5.138162">
<ele>3</ele>
<time>2026-05-14T00:03:49Z</time></trkpt>
<trkpt lat="52.200785" lon="5.137148">
<ele>3</ele>
<time>2026-05-14T00:04:39Z</time></trkpt>
<trkpt lat="52.200739" lon="5.137151">
<ele>3</ele>
<time>2026-05-14T00:04:43Z</time></trkpt>
<trkpt lat="52.199851" lon="5.137048">
<ele>5</ele>
<time>2026-05-14T00:05:54Z</time></trkpt>
<trkpt lat="52.19982" lon="5.137575">
<ele>4</ele>
<time>2026-05-14T00:06:20Z</time></trkpt>
<trkpt lat="52.199507" lon="5.137541">
<ele>5</ele>
<time>2026-05-14T00:06:45Z</time></trkpt>
<trkpt lat="52.199127" lon="5.137634">
<ele>5</ele>
<time>2026-05-14T00:07:16Z</time></trkpt>
<trkpt lat="52.198373" lon="5.137392">
<ele>3</ele>
<time>2026-05-14T00:08:18Z</time></trkpt>
<trkpt lat="52.198239" lon="5.137318">
<ele>3</ele>
<time>2026-05-14T00:08:29Z</time></trkpt>
<trkpt lat="52.19739" lon="5.13702">
<ele>3</ele>
<time>2026-05-14T00:09:39Z</time></trkpt>
<trkpt lat="52.19716" lon="5.13698">
<ele>3</ele>
<time>2026-05-14T00:09:57Z</time></trkpt>
<trkpt lat="52.19707" lon="5.13703">
<ele>2</ele>
<time>2026-05-14T00:10:05Z</time></trkpt>
<trkpt lat="52.1969629" lon="5.1371642">
<ele>2</ele>
<time>2026-05-14T00:10:16Z</time></trkpt>
<trkpt lat="52.196947" lon="5.1372014">
<ele>2</ele>
<time>2026-05-14T00:10:18Z</time></trkpt>
<trkpt lat="52.1969485" lon="5.1372055">
<ele>2</ele>
<time>2026-05-14T00:10:18Z</time></trkpt>
<trkpt lat="52.1971526" lon="5.1377794">
<ele>3</ele>
<time>2026-05-14T00:10:51Z</time></trkpt>
<trkpt lat="52.1972109" lon="5.1379779">
<ele>2</ele>
<time>2026-05-14T00:11:02Z</time></trkpt>
<trkpt lat="52.1972833" lon="5.1380047">
<ele>2</ele>
<time>2026-05-14T00:11:08Z</time></trkpt>
<trkpt lat="52.197287" lon="5.137985">
<ele>2</ele>
<time>2026-05-14T00:11:09Z</time></trkpt>
<trkpt lat="52.197315" lon="5.138209">
<ele>2</ele>
<time>2026-05-14T00:11:20Z</time></trkpt>
<trkpt lat="52.197382" lon="5.138229">
<ele>2</ele>
<time>2026-05-14T00:11:25Z</time></trkpt>
<trkpt lat="52.197378" lon="5.138253">
<ele>2</ele>
<time>2026-05-14T00:11:26Z</time></trkpt>
<trkpt lat="52.197353" lon="5.13844">
<ele>2</ele>
<time>2026-05-14T00:11:36Z</time></trkpt>
<trkpt lat="52.197296" lon="5.138419">
<ele>2</ele>
<time>2026-05-14T00:11:41Z</time></trkpt>
<trkpt lat="52.197259" lon="5.138739">
<ele>3</ele>
<time>2026-05-14T00:11:57Z</time></trkpt>
<trkpt lat="52.19708" lon="5.140292">
<ele>3</ele>
<time>2026-05-14T00:13:14Z</time></trkpt>
<trkpt lat="52.1970578" lon="5.140427">
<ele>3</ele>
<time>2026-05-14T00:13:21Z</time></trkpt>
<trkpt lat="52.197024" lon="5.140632">
<ele>3</ele>
<time>2026-05-14T00:13:31Z</time></trkpt>
<trkpt lat="52.196937" lon="5.140674">
<ele>3</ele>
<time>2026-05-14T00:13:39Z</time></trkpt>
<trkpt lat="52.196836" lon="5.140759">
<ele>3</ele>
<time>2026-05-14T00:13:48Z</time></trkpt>
<trkpt lat="52.196762" lon="5.140923">
<ele>3</ele>
<time>2026-05-14T00:13:58Z</time></trkpt>
<trkpt lat="52.19668" lon="5.141306">
<ele>3</ele>
<time>2026-05-14T00:14:18Z</time></trkpt>
<trkpt lat="52.196614" lon="5.141587">
<ele>3</ele>
<time>2026-05-14T00:14:33Z</time></trkpt>
<trkpt lat="52.196441" lon="5.142046">
<ele>3</ele>
<time>2026-05-14T00:14:59Z</time></trkpt>
<trkpt lat="52.19603" lon="5.143804">
<ele>3</ele>
<time>2026-05-14T00:16:31Z</time></trkpt>
<trkpt lat="52.19591" lon="5.144117">
<ele>3</ele>
<time>2026-05-14T00:16:50Z</time></trkpt>
<trkpt lat="52.1958965" lon="5.1441805">
<ele>3</ele>
<time>2026-05-14T00:16:53Z</time></trkpt>
<trkpt lat="52.1958953" lon="5.1441826">
<ele>3</ele>
<time>2026-05-14T00:16:53Z</time></trkpt>
<trkpt lat="52.19588" lon="5.1442087">
<ele>3</ele>
<time>2026-05-14T00:16:55Z</time></trkpt>
<trkpt lat="52.1958538" lon="5.144261">
<ele>3</ele>
<time>2026-05-14T00:16:58Z</time></trkpt>
<trkpt lat="52.1958428" lon="5.1443106">
<ele>4</ele>
<time>2026-05-14T00:17:01Z</time></trkpt>
<trkpt lat="52.196225" lon="5.144715">
<ele>5</ele>
<time>2026-05-14T00:17:37Z</time></trkpt>
<trkpt lat="52.196631" lon="5.145204">
<ele>5</ele>
<time>2026-05-14T00:18:18Z</time></trkpt>
<trkpt lat="52.19725" lon="5.145541">
<ele>5</ele>
<time>2026-05-14T00:19:10Z</time></trkpt>
<trkpt lat="52.197916" lon="5.145748">
<ele>5</ele>
<time>2026-05-14T00:20:04Z</time></trkpt>
<trkpt lat="52.197998" lon="5.145771">
<ele>4</ele>
<time>2026-05-14T00:20:11Z</time></trkpt>
<trkpt lat="52.19824" lon="5.145766">
<ele>4</ele>
<time>2026-05-14T00:20:30Z</time></trkpt>
<trkpt lat="52.198306" lon="5.145832">
<ele>4</ele>
<time>2026-05-14T00:20:37Z</time></trkpt>
<trkpt lat="52.1983274" lon="5.1458324">
<ele>4</ele>
<time>2026-05-14T00:20:38Z</time></trkpt>
<trkpt lat="52.198608" lon="5.145837">
<ele>4</ele>
<time>2026-05-14T00:21:01Z</time></trkpt>
<trkpt lat="52.198581" lon="5.145971">
<ele>4</ele>
<time>2026-05-14T00:21:08Z</time></trkpt>
<trkpt lat="52.19849" lon="5.146126">
<ele>4</ele>
<time>2026-05-14T00:21:18Z</time></trkpt>
<trkpt lat="52.198431" lon="5.146398">
<ele>4</ele>
<time>2026-05-14T00:21:32Z</time></trkpt>
<trkpt lat="52.198254" lon="5.148494">
<ele>4</ele>
<time>2026-05-14T00:23:16Z</time></trkpt>
<trkpt lat="52.198098" lon="5.149369">
<ele>6</ele>
<time>2026-05-14T00:24:01Z</time></trkpt>
<trkpt lat="52.19809" lon="5.149408">
<ele>6</ele>
<time>2026-05-14T00:24:03Z</time></trkpt>
<trkpt lat="52.198077" lon="5.150051">
<ele>7</ele>
<time>2026-05-14T00:24:35Z</time></trkpt>
<trkpt lat="52.198041" lon="5.150529">
<ele>8</ele>
<time>2026-05-14T00:24:58Z</time></trkpt>
<trkpt lat="52.19798" lon="5.15132">
<ele>7</ele>
<time>2026-05-14T00:25:38Z</time></trkpt>
<trkpt lat="52.1978" lon="5.1529">
<ele>7</ele>
<time>2026-05-14T00:26:57Z</time></trkpt>
<trkpt lat="52.197743" lon="5.154497">
<ele>7</ele>
<time>2026-05-14T00:28:15Z</time></trkpt>
<trkpt lat="52.197805" lon="5.155435">
<ele>7</ele>
<time>2026-05-14T00:29:02Z</time></trkpt>
<trkpt lat="52.197847" lon="5.156758">
<ele>11</ele>
<time>2026-05-14T00:30:07Z</time></trkpt>
<trkpt lat="52.1979127" lon="5.1568908">
<ele>11</ele>
<time>2026-05-14T00:30:15Z</time></trkpt>
<trkpt lat="52.197945" lon="5.156956">
<ele>11</ele>
<time>2026-05-14T00:30:19Z</time></trkpt>
<trkpt lat="52.198003" lon="5.157279">
<ele>12</ele>
<time>2026-05-14T00:30:36Z</time></trkpt>
<trkpt lat="52.198042" lon="5.157895">
<ele>13</ele>
<time>2026-05-14T00:31:06Z</time></trkpt>
<trkpt lat="52.197992" lon="5.158921">
<ele>11</ele>
<time>2026-05-14T00:31:57Z</time></trkpt>
<trkpt lat="52.197967" lon="5.15923">
<ele>10</ele>
<time>2026-05-14T00:32:12Z</time></trkpt>
<trkpt lat="52.197979" lon="5.159439">
<ele>10</ele>
<time>2026-05-14T00:32:22Z</time></trkpt>
<trkpt lat="52.198137" lon="5.16016">
<ele>10</ele>
<time>2026-05-14T00:33:00Z</time></trkpt>
<trkpt lat="52.198263" lon="5.160615">
<ele>11</ele>
<time>2026-05-14T00:33:24Z</time></trkpt>
<trkpt lat="52.198509" lon="5.161214">
<ele>12</ele>
<time>2026-05-14T00:34:00Z</time></trkpt>
<trkpt lat="52.198834" lon="5.161809">
<ele>13</ele>
<time>2026-05-14T00:34:39Z</time></trkpt>
<trkpt lat="52.199207" lon="5.162376">
<ele>14</ele>
<time>2026-05-14T00:35:20Z</time></trkpt>
<trkpt lat="52.199545" lon="5.162781">
<ele>15</ele>
<time>2026-05-14T00:35:53Z</time></trkpt>
<trkpt lat="52.199763" lon="5.163022">
<ele>15</ele>
<time>2026-05-14T00:36:15Z</time></trkpt>
<trkpt lat="52.199835" lon="5.163153">
<ele>15</ele>
<time>2026-05-14T00:36:23Z</time></trkpt>
<trkpt lat="52.199966" lon="5.163116">
<ele>15</ele>
<time>2026-05-14T00:36:34Z</time></trkpt>
<trkpt lat="52.200042" lon="5.163138">
<ele>15</ele>
<time>2026-05-14T00:36:40Z</time></trkpt>
<trkpt lat="52.201995" lon="5.164214">
<ele>11</ele>
<time>2026-05-14T00:39:25Z</time></trkpt>
<trkpt lat="52.20222" lon="5.16437">
<ele>11</ele>
<time>2026-05-14T00:39:45Z</time></trkpt>
<trkpt lat="52.203905" lon="5.166277">
<ele>16</ele>
<time>2026-05-14T00:42:29Z</time></trkpt>
<trkpt lat="52.203737" lon="5.166973">
<ele>17</ele>
<time>2026-05-14T00:43:06Z</time></trkpt>
<trkpt lat="52.203714" lon="5.167149">
<ele>17</ele>
<time>2026-05-14T00:43:15Z</time></trkpt>
<trkpt lat="52.203756" lon="5.167482">
<ele>18</ele>
<time>2026-05-14T00:43:31Z</time></trkpt>
<trkpt lat="52.203736" lon="5.167622">
<ele>18</ele>
<time>2026-05-14T00:43:39Z</time></trkpt>
<trkpt lat="52.20349" lon="5.168567">
<ele>18</ele>
<time>2026-05-14T00:44:29Z</time></trkpt>
<trkpt lat="52.2028512" lon="5.1708597">
<ele>16</ele>
<time>2026-05-14T00:46:33Z</time></trkpt>
<trkpt lat="52.20285" lon="5.170864">
<ele>16</ele>
<time>2026-05-14T00:46:33Z</time></trkpt>
<trkpt lat="52.202468" lon="5.172373">
<ele>14</ele>
<time>2026-05-14T00:47:53Z</time></trkpt>
<trkpt lat="52.202347" lon="5.17277">
<ele>12</ele>
<time>2026-05-14T00:48:15Z</time></trkpt>
<trkpt lat="52.202697" lon="5.173003">
<ele>15</ele>
<time>2026-05-14T00:48:45Z</time></trkpt>
<trkpt lat="52.202887" lon="5.173025">
<ele>17</ele>
<time>2026-05-14T00:49:00Z</time></trkpt>
<trkpt lat="52.203248" lon="5.173163">
<ele>19</ele>
<time>2026-05-14T00:49:30Z</time></trkpt>
<trkpt lat="52.203559" lon="5.173341">
<ele>20</ele>
<time>2026-05-14T00:49:57Z</time></trkpt>
<trkpt lat="52.204027" lon="5.17355">
<ele>22</ele>
<time>2026-05-14T00:50:35Z</time></trkpt>
<trkpt lat="52.204359" lon="5.173578">
<ele>24</ele>
<time>2026-05-14T00:51:02Z</time></trkpt>
<trkpt lat="52.204645" lon="5.173748">
<ele>26</ele>
<time>2026-05-14T00:51:27Z</time></trkpt>
<trkpt lat="52.204823" lon="5.173997">
<ele>27</ele>
<time>2026-05-14T00:51:45Z</time></trkpt>
<trkpt lat="52.204908" lon="5.17427">
<ele>27</ele>
<time>2026-05-14T00:52:00Z</time></trkpt>
<trkpt lat="52.205002" lon="5.174831">
<ele>26</ele>
<time>2026-05-14T00:52:29Z</time></trkpt>
<trkpt lat="52.2052484" lon="5.175217">
<ele>26</ele>
<time>2026-05-14T00:52:56Z</time></trkpt>
<trkpt lat="52.205302" lon="5.175301">
<ele>26</ele>
<time>2026-05-14T00:53:02Z</time></trkpt>
<trkpt lat="52.205341" lon="5.175354">
<ele>26</ele>
<time>2026-05-14T00:53:06Z</time></trkpt>
<trkpt lat="52.205434" lon="5.175582">
<ele>27</ele>
<time>2026-05-14T00:53:20Z</time></trkpt>
<trkpt lat="52.205806" lon="5.1766578">
<ele>29</ele>
<time>2026-05-14T00:54:20Z</time></trkpt>
<trkpt lat="52.205879" lon="5.176869">
<ele>28</ele>
<time>2026-05-14T00:54:32Z</time></trkpt>
<trkpt lat="52.206149" lon="5.177125">
<ele>26</ele>
<time>2026-05-14T00:54:57Z</time></trkpt>
<trkpt lat="52.20634" lon="5.177244">
<ele>25</ele>
<time>2026-05-14T00:55:14Z</time></trkpt>
<trkpt lat="52.206783" lon="5.17741">
<ele>23</ele>
<time>2026-05-14T00:55:50Z</time></trkpt>
<trkpt lat="52.207146" lon="5.176932">
<ele>26</ele>
<time>2026-05-14T00:56:28Z</time></trkpt>
<trkpt lat="52.207494" lon="5.175896">
<ele>32</ele>
<time>2026-05-14T00:57:26Z</time></trkpt>
<trkpt lat="52.207617" lon="5.175609">
<ele>30</ele>
<time>2026-05-14T00:57:43Z</time></trkpt>
<trkpt lat="52.207748" lon="5.175213">
<ele>28</ele>
<time>2026-05-14T00:58:05Z</time></trkpt>
<trkpt lat="52.207781" lon="5.174984">
<ele>28</ele>
<time>2026-05-14T00:58:16Z</time></trkpt>
<trkpt lat="52.207786" lon="5.174715">
<ele>27</ele>
<time>2026-05-14T00:58:30Z</time></trkpt>
<trkpt lat="52.207769" lon="5.174476">
<ele>27</ele>
<time>2026-05-14T00:58:42Z</time></trkpt>
<trkpt lat="52.207752" lon="5.1735734">
<ele>24</ele>
<time>2026-05-14T00:59:26Z</time></trkpt>
<trkpt lat="52.2077497" lon="5.1734501">
<ele>24</ele>
<time>2026-05-14T00:59:32Z</time></trkpt>
<trkpt lat="52.2077456" lon="5.1734508">
<ele>24</ele>
<time>2026-05-14T00:59:32Z</time></trkpt>
<trkpt lat="52.207656" lon="5.1734662">
<ele>24</ele>
<time>2026-05-14T00:59:39Z</time></trkpt>
<trkpt lat="52.207651" lon="5.1733348">
<ele>24</ele>
<time>2026-05-14T00:59:46Z</time></trkpt>
<trkpt lat="52.2076538" lon="5.1733345">
<ele>24</ele>
<time>2026-05-14T00:59:46Z</time></trkpt>
<trkpt lat="52.2076971" lon="5.1733294">
<ele>24</ele>
<time>2026-05-14T00:59:50Z</time></trkpt>
<trkpt lat="52.207702" lon="5.1728493">
<ele>24</ele>
<time>2026-05-14T01:00:13Z</time></trkpt>
<trkpt lat="52.2077009" lon="5.1728484">
<ele>24</ele>
<time>2026-05-14T01:00:13Z</time></trkpt>
<trkpt lat="52.2076764" lon="5.1728295">
<ele>25</ele>
<time>2026-05-14T01:00:16Z</time></trkpt>
<trkpt lat="52.207342" lon="5.172726">
<ele>26</ele>
<time>2026-05-14T01:00:43Z</time></trkpt>
<trkpt lat="52.207156" lon="5.172611">
<ele>27</ele>
<time>2026-05-14T01:00:59Z</time></trkpt>
<trkpt lat="52.206754" lon="5.172515">
<ele>30</ele>
<time>2026-05-14T01:01:31Z</time></trkpt>
<trkpt lat="52.2065855" lon="5.1724229">
<ele>30</ele>
<time>2026-05-14T01:01:46Z</time></trkpt>
<trkpt lat="52.206529" lon="5.172392">
<ele>30</ele>
<time>2026-05-14T01:01:50Z</time></trkpt>
<trkpt lat="52.206413" lon="5.172371">
<ele>30</ele>
<time>2026-05-14T01:02:00Z</time></trkpt>
<trkpt lat="52.206392" lon="5.172337">
<ele>30</ele>
<time>2026-05-14T01:02:02Z</time></trkpt>
<trkpt lat="52.206392" lon="5.172337">
<ele>30</ele>
<time>2026-05-14T01:02:02Z</time></trkpt>
<trkpt lat="52.206366" lon="5.172297">
<ele>31</ele>
<time>2026-05-14T01:02:05Z</time></trkpt>
<trkpt lat="52.206385" lon="5.172273">
<ele>31</ele>
<time>2026-05-14T01:02:07Z</time></trkpt>
<trkpt lat="52.206544" lon="5.172075">
<ele>31</ele>
<time>2026-05-14T01:02:23Z</time></trkpt>
<trkpt lat="52.206727" lon="5.171938">
<ele>31</ele>
<time>2026-05-14T01:02:39Z</time></trkpt>
<trkpt lat="52.207068" lon="5.171324">
<ele>30</ele>
<time>2026-05-14T01:03:20Z</time></trkpt>
<trkpt lat="52.2070688" lon="5.1713211">
<ele>30</ele>
<time>2026-05-14T01:03:20Z</time></trkpt>
<trkpt lat="52.207188" lon="5.170896">
<ele>28</ele>
<time>2026-05-14T01:03:43Z</time></trkpt>
<trkpt lat="52.207125" lon="5.170285">
<ele>29</ele>
<time>2026-05-14T01:04:13Z</time></trkpt>
<trkpt lat="52.207119" lon="5.169477">
<ele>31</ele>
<time>2026-05-14T01:04:53Z</time></trkpt>
<trkpt lat="52.207116" lon="5.169061">
<ele>31</ele>
<time>2026-05-14T01:05:13Z</time></trkpt>
<trkpt lat="52.207134" lon="5.1688205">
<ele>31</ele>
<time>2026-05-14T01:05:25Z</time></trkpt>
<trkpt lat="52.207134" lon="5.16882">
<ele>31</ele>
<time>2026-05-14T01:05:25Z</time></trkpt>
<trkpt lat="52.207244" lon="5.168576">
<ele>31</ele>
<time>2026-05-14T01:05:40Z</time></trkpt>
<trkpt lat="52.207287" lon="5.168382">
<ele>31</ele>
<time>2026-05-14T01:05:50Z</time></trkpt>
<trkpt lat="52.207346" lon="5.16787">
<ele>30</ele>
<time>2026-05-14T01:06:16Z</time></trkpt>
<trkpt lat="52.207382" lon="5.166844">
<ele>24</ele>
<time>2026-05-14T01:07:06Z</time></trkpt>
<trkpt lat="52.2072946" lon="5.1668781">
<ele>25</ele>
<time>2026-05-14T01:07:14Z</time></trkpt>
<trkpt lat="52.206166" lon="5.167319">
<ele>26</ele>
<time>2026-05-14T01:08:47Z</time></trkpt>
<trkpt lat="52.205982" lon="5.167342">
<ele>25</ele>
<time>2026-05-14T01:09:01Z</time></trkpt>
<trkpt lat="52.205452" lon="5.167305">
<ele>24</ele>
<time>2026-05-14T01:09:44Z</time></trkpt>
<trkpt lat="52.20515" lon="5.167254">
<ele>23</ele>
<time>2026-05-14T01:10:08Z</time></trkpt>
<trkpt lat="52.205061" lon="5.167219">
<ele>23</ele>
<time>2026-05-14T01:10:16Z</time></trkpt>
<trkpt lat="52.204051" lon="5.166454">
<ele>17</ele>
<time>2026-05-14T01:11:45Z</time></trkpt>
<trkpt lat="52.2039334" lon="5.1663114">
<ele>17</ele>
<time>2026-05-14T01:11:57Z</time></trkpt>
<trkpt lat="52.2039069" lon="5.1662792">
<ele>16</ele>
<time>2026-05-14T01:11:59Z</time></trkpt>
<trkpt lat="52.203905" lon="5.166277">
<ele>16</ele>
<time>2026-05-14T01:11:59Z</time></trkpt>
<trkpt lat="52.205098" lon="5.161349">
<ele>9</ele>
<time>2026-05-14T01:16:20Z</time></trkpt>
<trkpt lat="52.205168" lon="5.161241">
<ele>9</ele>
<time>2026-05-14T01:16:27Z</time></trkpt>
<trkpt lat="52.20549" lon="5.160896">
<ele>10</ele>
<time>2026-05-14T01:16:58Z</time></trkpt>
<trkpt lat="52.2055204" lon="5.160806">
<ele>10</ele>
<time>2026-05-14T01:17:03Z</time></trkpt>
<trkpt lat="52.205559" lon="5.160692">
<ele>10</ele>
<time>2026-05-14T01:17:10Z</time></trkpt>
<trkpt lat="52.205653" lon="5.160497">
<ele>10</ele>
<time>2026-05-14T01:17:22Z</time></trkpt>
<trkpt lat="52.2074147" lon="5.1573635">
<ele>5</ele>
<time>2026-05-14T01:20:51Z</time></trkpt>
<trkpt lat="52.207415" lon="5.157363">
<ele>5</ele>
<time>2026-05-14T01:20:51Z</time></trkpt>
<trkpt lat="52.207172" lon="5.157153">
<ele>5</ele>
<time>2026-05-14T01:21:13Z</time></trkpt>
<trkpt lat="52.206925" lon="5.15677">
<ele>6</ele>
<time>2026-05-14T01:21:40Z</time></trkpt>
<trkpt lat="52.206379" lon="5.156299">
<ele>8</ele>
<time>2026-05-14T01:22:30Z</time></trkpt>
<trkpt lat="52.205797" lon="5.155603">
<ele>9</ele>
<time>2026-05-14T01:23:27Z</time></trkpt>
<trkpt lat="52.2055496" lon="5.1553201">
<ele>10</ele>
<time>2026-05-14T01:23:52Z</time></trkpt>
<trkpt lat="52.205082" lon="5.154776">
<ele>11</ele>
<time>2026-05-14T01:24:38Z</time></trkpt>
<trkpt lat="52.204973" lon="5.154595">
<ele>11</ele>
<time>2026-05-14T01:24:50Z</time></trkpt>
<trkpt lat="52.204878" lon="5.15438">
<ele>11</ele>
<time>2026-05-14T01:25:03Z</time></trkpt>
<trkpt lat="52.204758" lon="5.154168">
<ele>11</ele>
<time>2026-05-14T01:25:17Z</time></trkpt>
<trkpt lat="52.204091" lon="5.15323">
<ele>9</ele>
<time>2026-05-14T01:26:28Z</time></trkpt>
<trkpt lat="52.203107" lon="5.152153">
<ele>9</ele>
<time>2026-05-14T01:28:03Z</time></trkpt>
<trkpt lat="52.202981" lon="5.152428">
<ele>9</ele>
<time>2026-05-14T01:28:20Z</time></trkpt>
<trkpt lat="52.2029301" lon="5.1523659">
<ele>9</ele>
<time>2026-05-14T01:28:25Z</time></trkpt>
<trkpt lat="52.2024227" lon="5.151746">
<ele>6</ele>
<time>2026-05-14T01:29:16Z</time></trkpt>
<trkpt lat="52.202426" lon="5.151739">
<ele>6</ele>
<time>2026-05-14T01:29:16Z</time></trkpt>
<trkpt lat="52.202148" lon="5.151592">
<ele>6</ele>
<time>2026-05-14T01:29:40Z</time></trkpt>
<trkpt lat="52.202021" lon="5.151577">
<ele>7</ele>
<time>2026-05-14T01:29:50Z</time></trkpt>
<trkpt lat="52.201931" lon="5.15163">
<ele>7</ele>
<time>2026-05-14T01:29:57Z</time></trkpt>
<trkpt lat="52.201697" lon="5.151572">
<ele>7</ele>
<time>2026-05-14T01:30:16Z</time></trkpt>
<trkpt lat="52.20149" lon="5.151343">
<ele>8</ele>
<time>2026-05-14T01:30:36Z</time></trkpt>
<trkpt lat="52.201431" lon="5.151181">
<ele>8</ele>
<time>2026-05-14T01:30:46Z</time></trkpt>
<trkpt lat="52.201403" lon="5.151021">
<ele>8</ele>
<time>2026-05-14T01:30:54Z</time></trkpt>
<trkpt lat="52.201422" lon="5.150913">
<ele>8</ele>
<time>2026-05-14T01:30:59Z</time></trkpt>
<trkpt lat="52.201742" lon="5.150481">
<ele>8</ele>
<time>2026-05-14T01:31:33Z</time></trkpt>
<trkpt lat="52.201742" lon="5.15048">
<ele>8</ele>
<time>2026-05-14T01:31:33Z</time></trkpt>
<trkpt lat="52.20175" lon="5.150471">
<ele>8</ele>
<time>2026-05-14T01:31:33Z</time></trkpt>
<trkpt lat="52.20175" lon="5.150471">
<ele>8</ele>
<time>2026-05-14T01:31:33Z</time></trkpt>
<trkpt lat="52.202025" lon="5.150164">
<ele>7</ele>
<time>2026-05-14T01:32:00Z</time></trkpt>
<trkpt lat="52.202056" lon="5.149988">
<ele>7</ele>
<time>2026-05-14T01:32:09Z</time></trkpt>
<trkpt lat="52.201849" lon="5.149511">
<ele>7</ele>
<time>2026-05-14T01:32:38Z</time></trkpt>
<trkpt lat="52.201807" lon="5.149378">
<ele>7</ele>
<time>2026-05-14T01:32:45Z</time></trkpt>
<trkpt lat="52.201807" lon="5.149378">
<ele>7</ele>
<time>2026-05-14T01:32:45Z</time></trkpt>
<trkpt lat="52.2018069" lon="5.1493781">
<ele>7</ele>
<time>2026-05-14T01:32:45Z</time></trkpt>
<trkpt lat="52.201735" lon="5.14943">
<ele>7</ele>
<time>2026-05-14T01:32:52Z</time></trkpt>
<trkpt lat="52.201735" lon="5.14943">
<ele>7</ele>
<time>2026-05-14T01:32:52Z</time></trkpt>
<trkpt lat="52.201147" lon="5.149654">
<ele>7</ele>
<time>2026-05-14T01:33:40Z</time></trkpt>
<trkpt lat="52.200759" lon="5.14992">
<ele>7</ele>
<time>2026-05-14T01:34:14Z</time></trkpt>
<trkpt lat="52.200599" lon="5.15003">
<ele>7</ele>
<time>2026-05-14T01:34:28Z</time></trkpt>
<trkpt lat="52.200599" lon="5.15003">
<ele>7</ele>
<time>2026-05-14T01:34:28Z</time></trkpt>
<trkpt lat="52.200019" lon="5.150429">
<ele>7</ele>
<time>2026-05-14T01:35:18Z</time></trkpt>
<trkpt lat="52.20001" lon="5.150427">
<ele>7</ele>
<time>2026-05-14T01:35:19Z</time></trkpt>
<trkpt lat="52.20001" lon="5.150427">
<ele>7</ele>
<time>2026-05-14T01:35:19Z</time></trkpt>
<trkpt lat="52.199435" lon="5.150294">
<ele>7</ele>
<time>2026-05-14T01:36:05Z</time></trkpt>
<trkpt lat="52.199312" lon="5.150242">
<ele>7</ele>
<time>2026-05-14T01:36:16Z</time></trkpt>
<trkpt lat="52.199312" lon="5.150242">
<ele>7</ele>
<time>2026-05-14T01:36:16Z</time></trkpt>
<trkpt lat="52.19896" lon="5.150094">
<ele>7</ele>
<time>2026-05-14T01:36:45Z</time></trkpt>
<trkpt lat="52.198669" lon="5.150026">
<ele>8</ele>
<time>2026-05-14T01:37:08Z</time></trkpt>
<trkpt lat="52.1984781" lon="5.150036">
<ele>8</ele>
<time>2026-05-14T01:37:24Z</time></trkpt>
<trkpt lat="52.198192" lon="5.150051">
<ele>8</ele>
<time>2026-05-14T01:37:46Z</time></trkpt>
<trkpt lat="52.198192" lon="5.150051">
<ele>8</ele>
<time>2026-05-14T01:37:46Z</time></trkpt>
<trkpt lat="52.1981316" lon="5.1500247">
<ele>8</ele>
<time>2026-05-14T01:37:51Z</time></trkpt>
<trkpt lat="52.1981316" lon="5.1500247">
<ele>8</ele>
<time>2026-05-14T01:37:51Z</time></trkpt>
<trkpt lat="52.1980719" lon="5.1500229">
<ele>7</ele>
<time>2026-05-14T01:37:56Z</time></trkpt>
<trkpt lat="52.1981079" lon="5.1494094">
<ele>6</ele>
<time>2026-05-14T01:38:27Z</time></trkpt>
<trkpt lat="52.1982714" lon="5.1485014">
<ele>4</ele>
<time>2026-05-14T01:39:13Z</time></trkpt>
<trkpt lat="52.1984488" lon="5.1464016">
<ele>4</ele>
<time>2026-05-14T01:40:57Z</time></trkpt>
<trkpt lat="52.1985075" lon="5.1461329">
<ele>4</ele>
<time>2026-05-14T01:41:11Z</time></trkpt>
<trkpt lat="52.1985954" lon="5.1459885">
<ele>4</ele>
<time>2026-05-14T01:41:21Z</time></trkpt>
<trkpt lat="52.1986224" lon="5.1458545">
<ele>4</ele>
<time>2026-05-14T01:41:28Z</time></trkpt>
<trkpt lat="52.198793" lon="5.145843">
<ele>4</ele>
<time>2026-05-14T01:41:42Z</time></trkpt>
<trkpt lat="52.198793" lon="5.145843">
<ele>4</ele>
<time>2026-05-14T01:41:42Z</time></trkpt>
<trkpt lat="52.199353" lon="5.145862">
<ele>4</ele>
<time>2026-05-14T01:42:27Z</time></trkpt>
<trkpt lat="52.199551" lon="5.145764">
<ele>4</ele>
<time>2026-05-14T01:42:43Z</time></trkpt>
<trkpt lat="52.200454" lon="5.145664">
<ele>2</ele>
<time>2026-05-14T01:43:56Z</time></trkpt>
<trkpt lat="52.200672" lon="5.145571">
<ele>2</ele>
<time>2026-05-14T01:44:14Z</time></trkpt>
<trkpt lat="52.200768" lon="5.145466">
<ele>2</ele>
<time>2026-05-14T01:44:23Z</time></trkpt>
<trkpt lat="52.200998" lon="5.1453255">
<ele>2</ele>
<time>2026-05-14T01:44:43Z</time></trkpt>
<trkpt lat="52.201079" lon="5.145279">
<ele>3</ele>
<time>2026-05-14T01:44:50Z</time></trkpt>
<trkpt lat="52.201039" lon="5.145064">
<ele>3</ele>
<time>2026-05-14T01:45:01Z</time></trkpt>
<trkpt lat="52.201002" lon="5.144843">
<ele>3</ele>
<time>2026-05-14T01:45:12Z</time></trkpt>
<trkpt lat="52.200872" lon="5.144052">
<ele>4</ele>
<time>2026-05-14T01:45:52Z</time></trkpt>
<trkpt lat="52.200856" lon="5.143618">
<ele>3</ele>
<time>2026-05-14T01:46:14Z</time></trkpt>
<trkpt lat="52.201683" lon="5.143432">
<ele>5</ele>
<time>2026-05-14T01:47:20Z</time></trkpt>
<trkpt lat="52.20167" lon="5.142527">
<ele>3</ele>
<time>2026-05-14T01:48:05Z</time></trkpt>
<trkpt lat="52.20248" lon="5.142492">
<ele>4</ele>
<time>2026-05-14T01:49:10Z</time></trkpt>
<trkpt lat="52.203245" lon="5.142146">
<ele>3</ele>
<time>2026-05-14T01:50:14Z</time></trkpt>
<trkpt lat="52.2035583" lon="5.1419522">
<ele>3</ele>
<time>2026-05-14T01:50:40Z</time></trkpt>
<trkpt lat="52.203843" lon="5.141774">
<ele>3</ele>
<time>2026-05-14T01:51:05Z</time></trkpt>
<trkpt lat="52.203846" lon="5.141772">
<ele>3</ele>
<time>2026-05-14T01:51:05Z</time></trkpt>
<trkpt lat="52.203911" lon="5.141725">
<ele>3</ele>
<time>2026-05-14T01:51:11Z</time></trkpt>
<trkpt lat="52.20383" lon="5.14147">
<ele>3</ele>
<time>2026-05-14T01:51:25Z</time></trkpt>
<trkpt lat="52.2034411" lon="5.1402438">
<ele>2</ele>
<time>2026-05-14T01:52:33Z</time></trkpt>
<trkpt lat="52.2034395" lon="5.1402389">
<ele>2</ele>
<time>2026-05-14T01:52:33Z</time></trkpt>
<trkpt lat="52.203428" lon="5.140203">
<ele>2</ele>
<time>2026-05-14T01:52:35Z</time></trkpt>
<trkpt lat="52.203428" lon="5.140203">
<ele>2</ele>
<time>2026-05-14T01:52:35Z</time></trkpt>
<trkpt lat="52.202955" lon="5.138488">
<ele>4</ele>
<time>2026-05-14T01:54:07Z</time></trkpt>
<trkpt lat="52.203428" lon="5.140203">
<ele>2</ele>
<time>2026-05-14T01:55:40Z</time></trkpt>
<trkpt lat="52.202955" lon="5.138487">
<ele>4</ele>
<time>2026-05-14T01:57:12Z</time></trkpt>
</trkseg>
</trk>
</gpx>